{"type":"FeatureCollection","features":[{"type":"Feature","geometry":{"type":"Point","coordinates":[-74.468962482999984,-5.717466452812622]},"properties":{"nombre":"Patria Nueva del Río Ucayali","status":"En proceso de titulación","etnias":"Cocama-Cocamilla (Kukama-Kukamiria)","no_habitantes":1603,"fuente":"IBC"}},{"type":"Feature","geometry":{"type":"Point","coordinates":[-74.969349701999988,-6.3231808937931238]},"properties":{"nombre":"Selva Alegre","status":"En proceso de reconocimiento","etnias":"NO EXISTE","no_habitantes":0,"fuente":"IBC"}},{"type":"Feature","geometry":{"type":"Point","coordinates":[-76.561910086999944,-6.3807270947912471]},"properties":{"nombre":"Rumicallpa","status":"En proceso de titulación","etnias":"Quechua, Lamas (Kichwa)","no_habitantes":36,"fuente":"IBC"}},{"type":"Feature","geometry":{"type":"Point","coordinates":[-73.853309078999985,-2.3159950119236776]},"properties":{"nombre":"Nueva Yarina de la Quebrada Copal Yacu","status":"En proceso de titulación","etnias":"Quechua, Napo (Kichwa)","no_habitantes":100,"fuente":"IBC"}},{"type":"Feature","geometry":{"type":"Point","coordinates":[-77.250297536999938,-5.0128407088354523]},"properties":{"nombre":"Copal","status":"En proceso de titulación","etnias":"Aguaruna (Awajun)","no_habitantes":300,"fuente":"IBC"}},{"type":"Feature","geometry":{"type":"Point","coordinates":[-74.539294265999956,-5.7537116668114718]},"properties":{"nombre":"Nuevo Santa Isabel","status":"En proceso de titulación","etnias":"Cocama-Cocamilla (Kukama-Kukamiria)","no_habitantes":126,"fuente":"IBC"}},{"type":"Feature","geometry":{"type":"Point","coordinates":[-74.571292706999941,-5.8622902098079832]},"properties":{"nombre":"Palmira","status":"En proceso de titulación","etnias":"Cocama-Cocamilla (Kukama-Kukamiria)","no_habitantes":132,"fuente":"IBC"}},{"type":"Feature","geometry":{"type":"Point","coordinates":[-73.923054192999984,-5.0989155098326497]},"properties":{"nombre":"Magdalena - Río Ucayali","status":"En proceso de titulación","etnias":"Cocama-Cocamilla (Kukama-Kukamiria)","no_habitantes":30,"fuente":"IBC"}},{"type":"Feature","geometry":{"type":"Point","coordinates":[-73.380651566999973,-3.8399099048736942]},"properties":{"nombre":"San José de Lupuna","status":"En proceso de titulación","etnias":"Cocama-Cocamilla (Kukama-Kukamiria)","no_habitantes":372,"fuente":"AIDESEP"}},{"type":"Feature","geometry":{"type":"Point","coordinates":[-74.443578188999936,-11.691306909625057]},"properties":{"nombre":"Río Blanco","status":"En proceso de titulación","etnias":"Nomatsiguenga","no_habitantes":124,"fuente":"IBC"}},{"type":"Feature","geometry":{"type":"Point","coordinates":[-73.787150044999976,-4.6476621688473383]},"properties":{"nombre":"Santo Domingo","status":"En proceso de reconocimiento","etnias":"Cocama-Cocamilla (Kukama-Kukamiria)","no_habitantes":42,"fuente":"IBC"}},{"type":"Feature","geometry":{"type":"Point","coordinates":[-70.283673243999942,-4.169687700862899]},"properties":{"nombre":"Simón Rivera del Yavarí","status":"En proceso de titulación","etnias":"Yagua","no_habitantes":17,"fuente":"IBC"}},{"type":"Feature","geometry":{"type":"Point","coordinates":[-75.238176299999964,-0.53222153998241506]},"properties":{"nombre":"Puerto Estrella","status":"En proceso de titulación","etnias":"Secoya","no_habitantes":25,"fuente":"IBC"}},{"type":"Feature","geometry":{"type":"Point","coordinates":[-72.964426704999951,-10.046904261675381]},"properties":{"nombre":"Nueva Vida","status":"En proceso de titulación","etnias":"Ashéninka","no_habitantes":125,"fuente":"IBC"}},{"type":"Feature","geometry":{"type":"Point","coordinates":[-73.201598644999933,-10.914256905648669]},"properties":{"nombre":"Nueva Aldea","status":"En proceso de reconocimiento","etnias":"Asháninka","no_habitantes":60,"fuente":"IBC"}},{"type":"Feature","geometry":{"type":"Point","coordinates":[-77.571447461999981,-3.194757881894835]},"properties":{"nombre":"Ankuash","status":"En proceso de titulación","etnias":"Huambisa (Wampis)","no_habitantes":38,"fuente":"IBC"}},{"type":"Feature","geometry":{"type":"Point","coordinates":[-75.420307645999969,-4.322842781857922]},"properties":{"nombre":"Nueva York","status":"En proceso de reconocimiento","etnias":"Urarina","no_habitantes":51,"fuente":"IBC"}},{"type":"Feature","geometry":{"type":"Point","coordinates":[-74.167969116999984,-5.151047370830983]},"properties":{"nombre":"Nuevo Kuwait","status":"En proceso de titulación","etnias":"Cocama-Cocamilla (Kukama-Kukamiria)","no_habitantes":440,"fuente":"IBC"}},{"type":"Feature","geometry":{"type":"Point","coordinates":[-76.562548412999945,-5.8342672308088774]},"properties":{"nombre":"San Jorge","status":"En proceso de titulación","etnias":"Chayahuita (Shawi)","no_habitantes":420,"fuente":"IBC"}},{"type":"Feature","geometry":{"type":"Point","coordinates":[-74.40413529999995,-4.684403777846132]},"properties":{"nombre":"San Martín de Tipishca","status":"En proceso de titulación","etnias":"Cocama-Cocamilla (Kukama-Kukamiria)","no_habitantes":520,"fuente":"IBC"}},{"type":"Feature","geometry":{"type":"Point","coordinates":[-74.010752737999951,-5.1525138878309207]},"properties":{"nombre":"Lago Prado","status":"En proceso de reconocimiento","etnias":"Cocama-Cocamilla (Kukama-Kukamiria)","no_habitantes":50,"fuente":"IBC"}},{"type":"Feature","geometry":{"type":"Point","coordinates":[-74.684904557999971,-5.8985505388067674]},"properties":{"nombre":"Curarina","status":"En proceso de titulación","etnias":"Cocama-Cocamilla (Kukama-Kukamiria)","no_habitantes":70,"fuente":"IBC"}},{"type":"Feature","geometry":{"type":"Point","coordinates":[-76.07428714699995,-6.5667919867852591]},"properties":{"nombre":"Allima Sachayuk Canayo","status":"En proceso de titulación","etnias":"Quechua, Lamas (Kichwa)","no_habitantes":175,"fuente":"IBC"}},{"type":"Feature","geometry":{"type":"Point","coordinates":[-75.064591864999954,-4.2548976028601491]},"properties":{"nombre":"Bellavista","status":"En proceso de titulación","etnias":"Urarina","no_habitantes":0,"fuente":"IBC"}},{"type":"Feature","geometry":{"type":"Point","coordinates":[-73.95134883299994,-9.8380352596818756]},"properties":{"nombre":"San José de Nueva Italia","status":"En proceso de titulación","etnias":"Ashéninka","no_habitantes":200,"fuente":"IBC"}},{"type":"Feature","geometry":{"type":"Point","coordinates":[-74.255866388999948,-9.4172634496949623]},"properties":{"nombre":"Nueva Unión","status":"En proceso de titulación","etnias":"Asháninka","no_habitantes":30,"fuente":"IBC"}},{"type":"Feature","geometry":{"type":"Point","coordinates":[-78.444354785999963,-5.42730000582202]},"properties":{"nombre":"Reserva Aguaruna Ujucam Aramango","status":"En proceso de titulación","etnias":"Aguaruna (Awajun)","no_habitantes":300,"fuente":"IBC"}},{"type":"Feature","geometry":{"type":"Point","coordinates":[-74.650900060999959,-8.4033466527268015]},"properties":{"nombre":"Nuevo San Juan","status":"En proceso de titulación","etnias":"Shipibo-Conibo","no_habitantes":700,"fuente":"IBC"}},{"type":"Feature","geometry":{"type":"Point","coordinates":[-76.623981660999959,-6.6756125147817897]},"properties":{"nombre":"Santa Martha","status":"En proceso de titulación","etnias":"Quechua, Lamas (Kichwa)","no_habitantes":2500,"fuente":"IBC"}},{"type":"Feature","geometry":{"type":"Point","coordinates":[-75.592897572999959,-6.6641099937821453]},"properties":{"nombre":"Santa Rosillo de Yanayacu","status":"En proceso de titulación","etnias":"Quechua, Lamas (Kichwa)","no_habitantes":350,"fuente":"IBC"}},{"type":"Feature","geometry":{"type":"Point","coordinates":[-74.517879079999943,-11.169498785640897]},"properties":{"nombre":"Santa Rosa de Kiriari","status":"En proceso de reconocimiento","etnias":"Asháninka","no_habitantes":52,"fuente":"IBC"}},{"type":"Feature","geometry":{"type":"Point","coordinates":[-73.718112947999941,-4.5814067478494955]},"properties":{"nombre":"Las Palmas","status":"En proceso de titulación","etnias":"Cocama-Cocamilla (Kukama-Kukamiria)","no_habitantes":40,"fuente":"IBC"}},{"type":"Feature","geometry":{"type":"Point","coordinates":[-74.209485767999979,-2.2975411029242667]},"properties":{"nombre":"Mucha Vista","status":"En proceso de titulación","etnias":"Quechua, Napo (Kichwa)","no_habitantes":80,"fuente":"IBC"}},{"type":"Feature","geometry":{"type":"Point","coordinates":[-77.858001969999975,-4.7650339998435296]},"properties":{"nombre":"Sawientsa","status":"En proceso de reconocimiento","etnias":"Aguaruna (Awajun)","no_habitantes":45,"fuente":"IBC"}},{"type":"Feature","geometry":{"type":"Point","coordinates":[-75.751546860999952,-5.713574764812785]},"properties":{"nombre":"Nueva Santa Rosa - Anexo de la CCNN San Francisco","status":"En proceso de titulación","etnias":"Chayahuita (Shawi)","no_habitantes":69,"fuente":"IBC"}},{"type":"Feature","geometry":{"type":"Point","coordinates":[-75.845248434999974,-5.4821426588202824]},"properties":{"nombre":"Union Challuana - Anexo de CN. Nueva Esperanza","status":"En proceso de titulación","etnias":"Cocama-Cocamilla (Kukama-Kukamiria)","no_habitantes":2,"fuente":"IBC"}},{"type":"Feature","geometry":{"type":"Point","coordinates":[-73.198102121999966,-10.922236631648456]},"properties":{"nombre":"Remoque","status":"En proceso de titulación","etnias":"Asháninka","no_habitantes":47,"fuente":"IBC"}},{"type":"Feature","geometry":{"type":"Point","coordinates":[-76.273806184999955,-4.6793279108463377]},"properties":{"nombre":"6 de Mayo","status":"En proceso de titulación","etnias":"Quechua, Pastaza (Kichwa)","no_habitantes":48,"fuente":"IBC"}},{"type":"Feature","geometry":{"type":"Point","coordinates":[-73.912261375999947,-10.591684183658595]},"properties":{"nombre":"Piérola","status":"En proceso de reconocimiento","etnias":"Asháninka","no_habitantes":50,"fuente":"IBC"}},{"type":"Feature","geometry":{"type":"Point","coordinates":[-70.075066203999938,-4.2834375188592215]},"properties":{"nombre":"San Francisco del Tucano","status":"En proceso de reconocimiento","etnias":"Cocama-Cocamilla (Kukama-Kukamiria)","no_habitantes":60,"fuente":"IBC"}},{"type":"Feature","geometry":{"type":"Point","coordinates":[-76.522599914999944,-6.423844464789866]},"properties":{"nombre":"El Wayku","status":"En proceso de titulación","etnias":"Quechua, Lamas (Kichwa)","no_habitantes":5000,"fuente":"IBC"}},{"type":"Feature","geometry":{"type":"Point","coordinates":[-70.802905642999974,-4.1802588648625507]},"properties":{"nombre":"Flor de Limonero","status":"En proceso de titulación","etnias":"Yagua","no_habitantes":120,"fuente":"IBC"}},{"type":"Feature","geometry":{"type":"Point","coordinates":[-73.171716291999985,-9.9261064196791171]},"properties":{"nombre":"Capiroshari","status":"En proceso de titulación","etnias":"Asháninka","no_habitantes":20,"fuente":"IBC"}},{"type":"Feature","geometry":{"type":"Point","coordinates":[-75.196281274999933,-9.3979958706955866]},"properties":{"nombre":"Unipacuyacu","status":"En proceso de titulación","etnias":"Cacataibo","no_habitantes":251,"fuente":"IBC"}},{"type":"Feature","geometry":{"type":"Point","coordinates":[-72.688383188999978,-10.636052010657213]},"properties":{"nombre":"Manitzi","status":"En proceso de titulación","etnias":"Amuesha (Yánesha)","no_habitantes":0,"fuente":"IBC"}},{"type":"Feature","geometry":{"type":"Point","coordinates":[-77.794783888999973,-4.6222185708481822]},"properties":{"nombre":"Alto Achuaga","status":"En proceso de reconocimiento","etnias":"Aguaruna (Awajun)","no_habitantes":0,"fuente":"IBC"}},{"type":"Feature","geometry":{"type":"Point","coordinates":[-74.973593540999957,-10.709462556654954]},"properties":{"nombre":"Tambo San Nicolas","status":"En proceso de titulación","etnias":"Asháninka","no_habitantes":44,"fuente":"IBC"}},{"type":"Feature","geometry":{"type":"Point","coordinates":[-77.231913407999969,-3.9854254968689262]},"properties":{"nombre":"Arutam","status":"En proceso de titulación","etnias":"Huambisa (Wampis)","no_habitantes":18,"fuente":"IBC"}},{"type":"Feature","geometry":{"type":"Point","coordinates":[-73.981483493999974,-10.540343835660176]},"properties":{"nombre":"Nueva Finca","status":"En proceso de reconocimiento","etnias":"Asháninka","no_habitantes":0,"fuente":"IBC"}},{"type":"Feature","geometry":{"type":"Point","coordinates":[-74.966797032999978,-10.527419692660557]},"properties":{"nombre":"Meriaro","status":"En proceso de titulación","etnias":"Asháninka","no_habitantes":48,"fuente":"IBC"}},{"type":"Feature","geometry":{"type":"Point","coordinates":[-76.627370827999982,-6.3493545937922899]},"properties":{"nombre":"Churuzapa","status":"En proceso de reconocimiento","etnias":"Quechua, Lamas (Kichwa)","no_habitantes":210,"fuente":"IBC"}},{"type":"Feature","geometry":{"type":"Point","coordinates":[-74.534397620999982,-11.151862703641411]},"properties":{"nombre":"El Milagro","status":"En proceso de titulación","etnias":"Asháninka","no_habitantes":163,"fuente":"IBC"}},{"type":"Feature","geometry":{"type":"Point","coordinates":[-74.182524589999957,-10.624930966657562]},"properties":{"nombre":"Kipashi","status":"En proceso de titulación","etnias":"Ashéninka","no_habitantes":30,"fuente":"IBC"}},{"type":"Feature","geometry":{"type":"Point","coordinates":[-73.98322705399994,-9.8738627216807568]},"properties":{"nombre":"Nuevo Celendín","status":"En proceso de titulación","etnias":"Asháninka","no_habitantes":95,"fuente":"IBC"}},{"type":"Feature","geometry":{"type":"Point","coordinates":[-76.61730911099994,-4.8596976318404437]},"properties":{"nombre":"Boca de Cahuapanas","status":"En proceso de reconocimiento","etnias":"Chayahuita (Shawi)","no_habitantes":110,"fuente":"IBC"}},{"type":"Feature","geometry":{"type":"Point","coordinates":[-74.302825774999974,-3.9487782218701124]},"properties":{"nombre":"Nuevo Paraíso","status":"En proceso de reconocimiento","etnias":"Cocama-Cocamilla (Kukama-Kukamiria)","no_habitantes":100,"fuente":"IBC"}},{"type":"Feature","geometry":{"type":"Point","coordinates":[-75.051566590999983,-9.9691314576777863]},"properties":{"nombre":"Lorencillo","status":"En proceso de reconocimiento","etnias":"Asháninka","no_habitantes":700,"fuente":"IBC"}},{"type":"Feature","geometry":{"type":"Point","coordinates":[-74.557408204999945,-8.2463283647317436]},"properties":{"nombre":"Nueva Bélgica","status":"En proceso de titulación","etnias":"Shipibo-Conibo","no_habitantes":115,"fuente":"IBC"}},{"type":"Feature","geometry":{"type":"Point","coordinates":[-74.667046092999954,-5.6157996438159188]},"properties":{"nombre":"Nuevo Liberal","status":"En proceso de titulación","etnias":"Cocama-Cocamilla (Kukama-Kukamiria)","no_habitantes":523,"fuente":"IBC"}},{"type":"Feature","geometry":{"type":"Point","coordinates":[-77.564718021999965,-4.6281233998479729]},"properties":{"nombre":"Pijuayal","status":"En proceso de titulación","etnias":"Aguaruna (Awajun)","no_habitantes":200,"fuente":"IBC"}},{"type":"Feature","geometry":{"type":"Point","coordinates":[-74.766987524999934,-4.5878649708492674]},"properties":{"nombre":"Concordia","status":"En proceso de reconocimiento","etnias":"Cocama-Cocamilla (Kukama-Kukamiria)","no_habitantes":850,"fuente":"IBC"}},{"type":"Feature","geometry":{"type":"Point","coordinates":[-74.337583059999986,-4.6888850418460324]},"properties":{"nombre":"Bolivar","status":"En proceso de titulación","etnias":"Cocama-Cocamilla (Kukama-Kukamiria)","no_habitantes":120,"fuente":"IBC"}},{"type":"Feature","geometry":{"type":"Point","coordinates":[-73.947882422999953,-9.7516344346845667]},"properties":{"nombre":"Tsimepanko","status":"En proceso de titulación","etnias":"Asháninka","no_habitantes":125,"fuente":"IBC"}},{"type":"Feature","geometry":{"type":"Point","coordinates":[-73.848765902999958,-12.461517287601904]},"properties":{"nombre":"Unión Santa Fé","status":"En proceso de titulación","etnias":"Machiguenga (Matsigenka)","no_habitantes":0,"fuente":"IBC"}},{"type":"Feature","geometry":{"type":"Point","coordinates":[-71.023813029999985,-3.9828079798690297]},"properties":{"nombre":"Nuevo San José de Prosperidad","status":"En proceso de titulación","etnias":"Cocama-Cocamilla (Kukama-Kukamiria)","no_habitantes":185,"fuente":"IBC"}},{"type":"Feature","geometry":{"type":"Point","coordinates":[-76.501906095999971,-6.8183186737772115]},"properties":{"nombre":"Yaku Sisa","status":"En proceso de titulación","etnias":"Quechua, Lamas (Kichwa)","no_habitantes":210,"fuente":"IBC"}},{"type":"Feature","geometry":{"type":"Point","coordinates":[-74.621860566999942,-1.4701711099514996]},"properties":{"nombre":"Humandi Bula","status":"En proceso de titulación","etnias":"Quechua, Napo (Kichwa)","no_habitantes":450,"fuente":"IBC"}},{"type":"Feature","geometry":{"type":"Point","coordinates":[-74.509638419999987,-11.083292209643535]},"properties":{"nombre":"Pampa Rosas","status":"En proceso de titulación","etnias":"Asháninka","no_habitantes":0,"fuente":"IBC"}},{"type":"Feature","geometry":{"type":"Point","coordinates":[-74.402643704999946,-11.338520223635765]},"properties":{"nombre":"Pueblo Nuevo","status":"En proceso de titulación","etnias":"Nomatsiguenga","no_habitantes":26,"fuente":"IBC"}},{"type":"Feature","geometry":{"type":"Point","coordinates":[-76.848857616999965,-4.8471849748408529]},"properties":{"nombre":"Primavera","status":"En proceso de titulación","etnias":"Chayahuita (Shawi)","no_habitantes":120,"fuente":"IBC"}},{"type":"Feature","geometry":{"type":"Point","coordinates":[-70.851284959999987,-3.7828659698755396]},"properties":{"nombre":"Pashia","status":"En proceso de titulación","etnias":"Yagua","no_habitantes":150,"fuente":"IBC"}},{"type":"Feature","geometry":{"type":"Point","coordinates":[-74.379809088999934,-5.4248768038221069]},"properties":{"nombre":"San Miguel - Río Puinahua","status":"En proceso de titulación","etnias":"Cocama-Cocamilla (Kukama-Kukamiria)","no_habitantes":90,"fuente":"IBC"}},{"type":"Feature","geometry":{"type":"Point","coordinates":[-76.444371703999934,-5.9499512218051116]},"properties":{"nombre":"Nuevo Oriente","status":"En proceso de titulación","etnias":"Chayahuita (Shawi)","no_habitantes":60,"fuente":"IBC"}},{"type":"Feature","geometry":{"type":"Point","coordinates":[-76.981246343999942,-4.8760493368398947]},"properties":{"nombre":"San Juan de Miraflores - Río Potro","status":"En proceso de reconocimiento","etnias":"Aguaruna (Awajun)","no_habitantes":65,"fuente":"IBC"}},{"type":"Feature","geometry":{"type":"Point","coordinates":[-75.802557132999937,-2.4250234199200627]},"properties":{"nombre":"Andrés Avelino Cáceres","status":"En proceso de titulación","etnias":"Quechua, No Especificado","no_habitantes":62,"fuente":"IBC"}},{"type":"Feature","geometry":{"type":"Point","coordinates":[-74.074236869999936,-9.9892216336771558]},"properties":{"nombre":"Nuevo Eden","status":"En proceso de reconocimiento","etnias":"Asháninka","no_habitantes":50,"fuente":"IBC"}},{"type":"Feature","geometry":{"type":"Point","coordinates":[-70.961315969999987,-3.5731499998824021]},"properties":{"nombre":"Tangarana","status":"En proceso de titulación","etnias":"Yagua","no_habitantes":117,"fuente":"IBC"}},{"type":"Feature","geometry":{"type":"Point","coordinates":[-74.681264467999938,-5.7531934888114886]},"properties":{"nombre":"Obrero II Zona","status":"En proceso de reconocimiento","etnias":"Cocama-Cocamilla (Kukama-Kukamiria)","no_habitantes":206,"fuente":"IBC"}},{"type":"Feature","geometry":{"type":"Point","coordinates":[-77.793159739999965,-4.9219675398384393]},"properties":{"nombre":"Chijawe","status":"En proceso de reconocimiento","etnias":"Aguaruna (Awajun)","no_habitantes":116,"fuente":"IBC"}},{"type":"Feature","geometry":{"type":"Point","coordinates":[-75.911648534999983,-5.8391716928087307]},"properties":{"nombre":"San Hilarión","status":"En proceso de titulación","etnias":"Chayahuita (Shawi)","no_habitantes":52,"fuente":"IBC"}},{"type":"Feature","geometry":{"type":"Point","coordinates":[-76.530362999999966,-5.3350479998250417]},"properties":{"nombre":"Nuevo Betel","status":"En proceso de titulación","etnias":"Chayahuita (Shawi)","no_habitantes":133,"fuente":"IBC"}},{"type":"Feature","geometry":{"type":"Point","coordinates":[-73.814501664999966,-12.208818528609413]},"properties":{"nombre":"Quepitoshiari","status":"En proceso de titulación","etnias":"NO EXISTE","no_habitantes":0,"fuente":"IBC"}},{"type":"Feature","geometry":{"type":"Point","coordinates":[-71.419606999999985,-4.0005920298684359]},"properties":{"nombre":"Nuevo Buen Jardín","status":"En proceso de titulación","etnias":"Aguaruna (Awajun)","no_habitantes":207,"fuente":"IBC"}},{"type":"Feature","geometry":{"type":"Point","coordinates":[-74.610893793999935,-5.7989959238099997]},"properties":{"nombre":"Santa Clotilde","status":"En proceso de titulación","etnias":"Cocama-Cocamilla (Kukama-Kukamiria)","no_habitantes":75,"fuente":"IBC"}},{"type":"Feature","geometry":{"type":"Point","coordinates":[-74.420920265999939,-4.6109894028485483]},"properties":{"nombre":"Atenas","status":"En proceso de titulación","etnias":"Cocama-Cocamilla (Kukama-Kukamiria)","no_habitantes":250,"fuente":"IBC"}},{"type":"Feature","geometry":{"type":"Point","coordinates":[-70.876292039999953,-3.6892220098786481]},"properties":{"nombre":"1ro de Octubre","status":"En proceso de titulación","etnias":"Yagua","no_habitantes":97,"fuente":"IBC"}},{"type":"Feature","geometry":{"type":"Point","coordinates":[-74.312201768999955,-10.786361898652578]},"properties":{"nombre":"Tiahuanasqui","status":"En proceso de titulación","etnias":"Ashéninka","no_habitantes":240,"fuente":"IBC"}},{"type":"Feature","geometry":{"type":"Point","coordinates":[-76.694067289999964,-4.2070790888616827]},"properties":{"nombre":"Puerto Bischi","status":"En proceso de titulación","etnias":"Candoshi (Kandozi)","no_habitantes":53,"fuente":"IBC"}},{"type":"Feature","geometry":{"type":"Point","coordinates":[-74.569985082999949,-5.5688498348174758]},"properties":{"nombre":"Bolivar","status":"En proceso de titulación","etnias":"Cocama-Cocamilla (Kukama-Kukamiria)","no_habitantes":220,"fuente":"IBC"}},{"type":"Feature","geometry":{"type":"Point","coordinates":[-76.570506783999974,-6.4429247777892682]},"properties":{"nombre":"Solo del Río Mayo","status":"En proceso de titulación","etnias":"Quechua, Lamas (Kichwa)","no_habitantes":260,"fuente":"IBC"}},{"type":"Feature","geometry":{"type":"Point","coordinates":[-74.385744354999986,-4.6196351668482656]},"properties":{"nombre":"Mundial","status":"En proceso de titulación","etnias":"Cocama-Cocamilla (Kukama-Kukamiria)","no_habitantes":220,"fuente":"IBC"}},{"type":"Feature","geometry":{"type":"Point","coordinates":[-76.464585998999951,-5.3044949978259988]},"properties":{"nombre":"Nuevo Bellavista","status":"En proceso de titulación","etnias":"Chayahuita (Shawi)","no_habitantes":141,"fuente":"IBC"}},{"type":"Feature","geometry":{"type":"Point","coordinates":[-74.161385153999959,-10.596244072658465]},"properties":{"nombre":"Los Claveles","status":"En proceso de reconocimiento","etnias":"Ashéninka","no_habitantes":0,"fuente":"IBC"}},{"type":"Feature","geometry":{"type":"Point","coordinates":[-76.773701855999946,-7.2974209287618779]},"properties":{"nombre":"Semache","status":"En proceso de titulación","etnias":"Aguaruna (Awajun)","no_habitantes":0,"fuente":"IBC"}},{"type":"Feature","geometry":{"type":"Point","coordinates":[-76.436354073999951,-4.699796038845677]},"properties":{"nombre":"Trueno Cocha","status":"En proceso de titulación","etnias":"Quechua, Pastaza (Kichwa)","no_habitantes":0,"fuente":"DISAFILPA"}},{"type":"Feature","geometry":{"type":"Point","coordinates":[-74.509420090999981,-5.5359288698185285]},"properties":{"nombre":"Nueva Independencia del Puinahua","status":"En proceso de titulación","etnias":"Cocama-Cocamilla (Kukama-Kukamiria)","no_habitantes":50,"fuente":"IBC"}},{"type":"Feature","geometry":{"type":"Point","coordinates":[-74.872857568999962,-6.0695008248013087]},"properties":{"nombre":"Trece de Enero","status":"En proceso de reconocimiento","etnias":"Shipibo-Conibo","no_habitantes":40,"fuente":"IBC"}},{"type":"Feature","geometry":{"type":"Point","coordinates":[-76.187798090999934,-5.801492490809955]},"properties":{"nombre":"Cachihuañushca","status":"En proceso de reconocimiento","etnias":"Chayahuita (Shawi)","no_habitantes":250,"fuente":"IBC"}},{"type":"Feature","geometry":{"type":"Point","coordinates":[-70.605971969999985,-3.5919569798818132]},"properties":{"nombre":"Santa Rosa","status":"En proceso de titulación","etnias":"Ticuna","no_habitantes":62,"fuente":"IBC"}},{"type":"Feature","geometry":{"type":"Point","coordinates":[-76.503115618999971,-6.4566290937887958]},"properties":{"nombre":"Shambuloa","status":"En proceso de titulación","etnias":"Quechua, Lamas (Kichwa)","no_habitantes":98,"fuente":"IBC"}},{"type":"Feature","geometry":{"type":"Point","coordinates":[-75.612115615999983,-5.1526899668309367]},"properties":{"nombre":"Yonan","status":"En proceso de titulación","etnias":"Cocama-Cocamilla (Kukama-Kukamiria)","no_habitantes":24,"fuente":"IBC"}},{"type":"Feature","geometry":{"type":"Point","coordinates":[-76.571328906999952,-6.428046784789724]},"properties":{"nombre":"Alto Pucallpillo","status":"En proceso de titulación","etnias":"Quechua, Lamas (Kichwa)","no_habitantes":174,"fuente":"IBC"}},{"type":"Feature","geometry":{"type":"Point","coordinates":[-76.55533900599994,-4.5690984918499167]},"properties":{"nombre":"Nuevo Caimito","status":"En proceso de titulación","etnias":"Quechua, Pastaza (Kichwa)","no_habitantes":78,"fuente":"IBC"}},{"type":"Feature","geometry":{"type":"Point","coordinates":[-74.386203368999986,-8.5066407717235428]},"properties":{"nombre":"San Juan de Miraflores","status":"En proceso de titulación","etnias":"Shipibo-Conibo","no_habitantes":0,"fuente":"IBC"}},{"type":"Feature","geometry":{"type":"Point","coordinates":[-74.06639989699994,-9.9283553656790513]},"properties":{"nombre":"Nueva Auqía","status":"En proceso de reconocimiento","etnias":"Asháninka","no_habitantes":350,"fuente":"IBC"}},{"type":"Feature","geometry":{"type":"Point","coordinates":[-70.720200509999984,-9.7686003776840415]},"properties":{"nombre":"Nuevo Paraíso Asháninka","status":"En proceso de titulación","etnias":"Asháninka","no_habitantes":0,"fuente":"IBC"}},{"type":"Feature","geometry":{"type":"Point","coordinates":[-71.816520039999943,-3.3467299898898473]},"properties":{"nombre":"Nueva Primavera","status":"En proceso de titulación","etnias":"Yagua","no_habitantes":32,"fuente":"IBC"}},{"type":"Feature","geometry":{"type":"Point","coordinates":[-74.164556736999941,-2.3127944279237656]},"properties":{"nombre":"Nuevo Israel","status":"En proceso de reconocimiento","etnias":"Quechua, Napo (Kichwa)","no_habitantes":19,"fuente":"IBC"}},{"type":"Feature","geometry":{"type":"Point","coordinates":[-77.12422425699998,-3.0109726699008221]},"properties":{"nombre":"Nayum Entsa","status":"En proceso de titulación","etnias":"Achuar","no_habitantes":55,"fuente":"IBC"}},{"type":"Feature","geometry":{"type":"Point","coordinates":[-73.535527978999937,-2.6860053999114886]},"properties":{"nombre":"Ninayacu","status":"En proceso de titulación","etnias":"Quechua, Napo (Kichwa)","no_habitantes":350,"fuente":"IBC"}},{"type":"Feature","geometry":{"type":"Point","coordinates":[-76.350262058999988,-5.957126124804895]},"properties":{"nombre":"Campo Verde","status":"En proceso de titulación","etnias":"Chayahuita (Shawi)","no_habitantes":0,"fuente":"IBC"}},{"type":"Feature","geometry":{"type":"Point","coordinates":[-77.351084268999955,-3.7316667048772332]},"properties":{"nombre":"Tigreyacu","status":"En proceso de titulación","etnias":"Achuar","no_habitantes":65,"fuente":"IBC"}},{"type":"Feature","geometry":{"type":"Point","coordinates":[-73.31716111999998,-3.4274055528872052]},"properties":{"nombre":"Gamitana Cocha","status":"En proceso de titulación","etnias":"NO EXISTE","no_habitantes":88,"fuente":"IBC"}},{"type":"Feature","geometry":{"type":"Point","coordinates":[-74.193763693999983,-4.677842692846359]},"properties":{"nombre":"San Miguel","status":"En proceso de titulación","etnias":"Cocama-Cocamilla (Kukama-Kukamiria)","no_habitantes":150,"fuente":"IBC"}},{"type":"Feature","geometry":{"type":"Point","coordinates":[-76.657634181999981,-4.4514549998537349]},"properties":{"nombre":"Musakarusha","status":"En proceso de titulación","etnias":"Candoshi (Kandozi)","no_habitantes":63,"fuente":"IBC"}},{"type":"Feature","geometry":{"type":"Point","coordinates":[-73.824465187999976,-4.6554225568470944]},"properties":{"nombre":"Veinte de Enero","status":"En proceso de reconocimiento","etnias":"Cocama-Cocamilla (Kukama-Kukamiria)","no_habitantes":150,"fuente":"IBC"}},{"type":"Feature","geometry":{"type":"Point","coordinates":[-73.496188749999988,-2.7597201159090474]},"properties":{"nombre":"Nueva Argelia","status":"En proceso de titulación","etnias":"Quechua, Napo (Kichwa)","no_habitantes":95,"fuente":"IBC"}},{"type":"Feature","geometry":{"type":"Point","coordinates":[-71.480457893999983,-4.4335125998543408]},"properties":{"nombre":"San José de Parinari","status":"En proceso de titulación","etnias":"Aguaruna (Awajun)","no_habitantes":150,"fuente":"IBC"}},{"type":"Feature","geometry":{"type":"Point","coordinates":[-75.700296433999938,-6.1766061087978574]},"properties":{"nombre":"Santa Sofía","status":"En proceso de titulación","etnias":"Quechua, Lamas (Kichwa)","no_habitantes":500,"fuente":"IBC"}},{"type":"Feature","geometry":{"type":"Point","coordinates":[-74.556975518999934,-11.264915933637957]},"properties":{"nombre":"Santa Guillermina","status":"En proceso de titulación","etnias":"Asháninka","no_habitantes":86,"fuente":"IBC"}},{"type":"Feature","geometry":{"type":"Point","coordinates":[-76.092931853999971,-6.5731280337851086]},"properties":{"nombre":"Tununtunumba","status":"En proceso de titulación","etnias":"Quechua, Lamas (Kichwa)","no_habitantes":970,"fuente":"IBC"}},{"type":"Feature","geometry":{"type":"Point","coordinates":[-74.337532483999951,-4.6466758378473898]},"properties":{"nombre":"Santa Clara","status":"En proceso de titulación","etnias":"Cocama-Cocamilla (Kukama-Kukamiria)","no_habitantes":87,"fuente":"IBC"}},{"type":"Feature","geometry":{"type":"Point","coordinates":[-76.577699371999984,-6.3859961657910578]},"properties":{"nombre":"Morillo","status":"En proceso de titulación","etnias":"Quechua, Lamas (Kichwa)","no_habitantes":235,"fuente":"IBC"}},{"type":"Feature","geometry":{"type":"Point","coordinates":[-75.870668353999974,-5.8909759578070453]},"properties":{"nombre":"Nuevo Santa Cruz","status":"En proceso de titulación","etnias":"Chayahuita (Shawi)","no_habitantes":40,"fuente":"IBC"}},{"type":"Feature","geometry":{"type":"Point","coordinates":[-75.128511861999982,-4.1140217438647433]},"properties":{"nombre":"Patoyacu","status":"En proceso de titulación","etnias":"Urarina","no_habitantes":72,"fuente":"IBC"}},{"type":"Feature","geometry":{"type":"Point","coordinates":[-76.580661987999974,-4.8716131268400442]},"properties":{"nombre":"Santa Rosa de Aripari","status":"En proceso de titulación","etnias":"NO EXISTE","no_habitantes":96,"fuente":"IBC"}},{"type":"Feature","geometry":{"type":"Point","coordinates":[-74.038672659999975,-9.7161716016856676]},"properties":{"nombre":"Benajema","status":"En proceso de titulación","etnias":"Shipibo-Conibo","no_habitantes":0,"fuente":"IBC"}},{"type":"Feature","geometry":{"type":"Point","coordinates":[-73.503187450999974,-9.217611819701192]},"properties":{"nombre":"Aguas Negras","status":"En proceso de titulación","etnias":"Asháninka","no_habitantes":0,"fuente":"IBC"}},{"type":"Feature","geometry":{"type":"Point","coordinates":[-73.34211335699996,-10.922074267648449]},"properties":{"nombre":"Fortaleza Kenashiri","status":"En proceso de titulación","etnias":"Asháninka","no_habitantes":0,"fuente":"IBC"}},{"type":"Feature","geometry":{"type":"Point","coordinates":[-73.948255503999974,-10.159292005671883]},"properties":{"nombre":"Nueva Santa Rosa de Tahuanía","status":"En proceso de titulación","etnias":"Asháninka","no_habitantes":105,"fuente":"IBC"}},{"type":"Feature","geometry":{"type":"Point","coordinates":[-74.534350233999987,-8.3607190997281062]},"properties":{"nombre":"Santa Rosa de Pucallpa","status":"En proceso de titulación","etnias":"Shipibo-Conibo","no_habitantes":70,"fuente":"IBC"}},{"type":"Feature","geometry":{"type":"Point","coordinates":[-76.482274513999982,-5.7907595968102976]},"properties":{"nombre":"San Vicente","status":"En proceso de titulación","etnias":"Chayahuita (Shawi)","no_habitantes":64,"fuente":"IBC"}},{"type":"Feature","geometry":{"type":"Point","coordinates":[-77.392996205999964,-3.6097427698812319]},"properties":{"nombre":"San Francisco - El Palomar","status":"En proceso de reconocimiento","etnias":"Huambisa (Wampis)","no_habitantes":150,"fuente":"IBC"}},{"type":"Feature","geometry":{"type":"Point","coordinates":[-74.401653827999951,-10.746339472653851]},"properties":{"nombre":"Manoncari","status":"En proceso de reconocimiento","etnias":"Ashéninka","no_habitantes":59,"fuente":"IBC"}},{"type":"Feature","geometry":{"type":"Point","coordinates":[-74.568985061999967,-8.3544491597283166]},"properties":{"nombre":"Kaiwetsa","status":"En proceso de reconocimiento","etnias":"Shipibo-Conibo","no_habitantes":0,"fuente":"IBC"}},{"type":"Feature","geometry":{"type":"Point","coordinates":[-73.50775004999997,-10.89092176364937]},"properties":{"nombre":"Cobao","status":"En proceso de titulación","etnias":"Asháninka","no_habitantes":0,"fuente":"IBC"}},{"type":"Feature","geometry":{"type":"Point","coordinates":[-73.235783313999946,-3.6477642758799966]},"properties":{"nombre":"Independencia","status":"En proceso de titulación","etnias":"Cocama-Cocamilla (Kukama-Kukamiria)","no_habitantes":275,"fuente":"IBC"}},{"type":"Feature","geometry":{"type":"Point","coordinates":[-75.507382016999941,-4.9556279798373568]},"properties":{"nombre":"Bellavista","status":"En proceso de titulación","etnias":"Cocama-Cocamilla (Kukama-Kukamiria)","no_habitantes":65,"fuente":"IBC"}},{"type":"Feature","geometry":{"type":"Point","coordinates":[-75.085853426999961,-8.297326346730145]},"properties":{"nombre":"Kokama Unida Ecológica","status":"En proceso de titulación","etnias":"Cocama-Cocamilla (Kukama-Kukamiria)","no_habitantes":120,"fuente":"IBC"}},{"type":"Feature","geometry":{"type":"Point","coordinates":[-74.547666285999981,-4.5263342228512835]},"properties":{"nombre":"Buena Vista Jerusalén","status":"En proceso de titulación","etnias":"Cocama-Cocamilla (Kukama-Kukamiria)","no_habitantes":75,"fuente":"IBC"}},{"type":"Feature","geometry":{"type":"Point","coordinates":[-74.218933455999945,-2.1336086629296593]},"properties":{"nombre":"Bandeja Isla","status":"En proceso de titulación","etnias":"Quechua, Napo (Kichwa)","no_habitantes":120,"fuente":"IBC"}},{"type":"Feature","geometry":{"type":"Point","coordinates":[-73.43467101899995,-10.235828896669561]},"properties":{"nombre":"Boca Mashasha","status":"En proceso de titulación","etnias":"Asháninka","no_habitantes":50,"fuente":"IBC"}},{"type":"Feature","geometry":{"type":"Point","coordinates":[-76.813767757999983,-6.7645983737789237]},"properties":{"nombre":"Simacache","status":"En proceso de titulación","etnias":"Aguaruna (Awajun)","no_habitantes":0,"fuente":"IBC"}},{"type":"Feature","geometry":{"type":"Point","coordinates":[-73.547582365999972,-4.481715687852744]},"properties":{"nombre":"Santa Cruz","status":"En proceso de titulación","etnias":"Cocama-Cocamilla (Kukama-Kukamiria)","no_habitantes":200,"fuente":"IBC"}},{"type":"Feature","geometry":{"type":"Point","coordinates":[-76.586192585999981,-6.4839213557879294]},"properties":{"nombre":"Panjuy","status":"En proceso de titulación","etnias":"Quechua, Lamas (Kichwa)","no_habitantes":850,"fuente":"IBC"}},{"type":"Feature","geometry":{"type":"Point","coordinates":[-76.578397405999965,-6.7370069167798396]},"properties":{"nombre":"Santa Elena","status":"En proceso de titulación","etnias":"Quechua, Lamas (Kichwa)","no_habitantes":450,"fuente":"IBC"}},{"type":"Feature","geometry":{"type":"Point","coordinates":[-74.590467299999943,-4.4769928348529247]},"properties":{"nombre":"Yurica 7 de Junio","status":"En proceso de titulación","etnias":"Cocama-Cocamilla (Kukama-Kukamiria)","no_habitantes":86,"fuente":"IBC"}},{"type":"Feature","geometry":{"type":"Point","coordinates":[-75.756397910999965,-6.1073493388000495]},"properties":{"nombre":"Nueva Barranquita","status":"En proceso de titulación","etnias":"Chayahuita (Shawi)","no_habitantes":90,"fuente":"IBC"}},{"type":"Feature","geometry":{"type":"Point","coordinates":[-74.283548949999954,-1.0038551329668461]},"properties":{"nombre":"Bellavista","status":"En proceso de titulación","etnias":"Secoya","no_habitantes":220,"fuente":"IBC"}},{"type":"Feature","geometry":{"type":"Point","coordinates":[-75.345439532999933,-4.8015982448423671]},"properties":{"nombre":"Santa Teresa","status":"En proceso de titulación","etnias":"Cocama-Cocamilla (Kukama-Kukamiria)","no_habitantes":60,"fuente":"IBC"}},{"type":"Feature","geometry":{"type":"Point","coordinates":[-74.469733770999937,-1.9858461019344804]},"properties":{"nombre":"Nueva Cajamarca","status":"En proceso de titulación","etnias":"Quechua, Napo (Kichwa)","no_habitantes":67,"fuente":"IBC"}},{"type":"Feature","geometry":{"type":"Point","coordinates":[-75.854884462999962,-5.3243752358253964]},"properties":{"nombre":"Vista Alegre","status":"En proceso de titulación","etnias":"Cocama-Cocamilla (Kukama-Kukamiria)","no_habitantes":190,"fuente":"IBC"}},{"type":"Feature","geometry":{"type":"Point","coordinates":[-74.989415501999986,-6.6152550607837437]},"properties":{"nombre":"Santa Teresa","status":"En proceso de titulación","etnias":"Asháninka","no_habitantes":142,"fuente":"IBC"}},{"type":"Feature","geometry":{"type":"Point","coordinates":[-75.747786497999982,-6.0226498838028206]},"properties":{"nombre":"Nuevo Porvenir Shucushyacu","status":"En proceso de titulación","etnias":"Chayahuita (Shawi)","no_habitantes":51,"fuente":"IBC"}},{"type":"Feature","geometry":{"type":"Point","coordinates":[-72.719011045999935,-3.505938610884638]},"properties":{"nombre":"Puerto Rico","status":"En proceso de reconocimiento","etnias":"Yagua","no_habitantes":81,"fuente":"IBC"}},{"type":"Feature","geometry":{"type":"Point","coordinates":[-76.56046613999996,-6.3305162147928575]},"properties":{"nombre":"Boca Shambuyacu","status":"En proceso de reconocimiento","etnias":"Quechua, Lamas (Kichwa)","no_habitantes":180,"fuente":"IBC"}},{"type":"Feature","geometry":{"type":"Point","coordinates":[-74.221027465999953,-4.5870256788493347]},"properties":{"nombre":"Puerto Auxilio","status":"En proceso de titulación","etnias":"Cocama-Cocamilla (Kukama-Kukamiria)","no_habitantes":97,"fuente":"IBC"}},{"type":"Feature","geometry":{"type":"Point","coordinates":[-77.602851635999968,-4.6129457598484693]},"properties":{"nombre":"Nuevo Santa Rosa","status":"En proceso de titulación","etnias":"NO EXISTE","no_habitantes":0,"fuente":"IBC"}},{"type":"Feature","geometry":{"type":"Point","coordinates":[-77.606040191999966,-3.9814756418690762]},"properties":{"nombre":"Kusuim","status":"En proceso de titulación","etnias":"Huambisa (Wampis)","no_habitantes":60,"fuente":"IBC"}},{"type":"Feature","geometry":{"type":"Point","coordinates":[-74.588215797999965,-5.8080260398097261]},"properties":{"nombre":"Nuevo Santa María de Shiari","status":"En proceso de reconocimiento","etnias":"Cocama-Cocamilla (Kukama-Kukamiria)","no_habitantes":130,"fuente":"IBC"}},{"type":"Feature","geometry":{"type":"Point","coordinates":[-73.889142288999949,-5.0482333968343092]},"properties":{"nombre":"Contamanillo - Río Ucayali","status":"En proceso de titulación","etnias":"Cocama-Cocamilla (Kukama-Kukamiria)","no_habitantes":50,"fuente":"IBC"}},{"type":"Feature","geometry":{"type":"Point","coordinates":[-70.13518002099994,-11.903269228618608]},"properties":{"nombre":"Puerto Nuevo","status":"En proceso de titulación","etnias":"Piro (Yine)","no_habitantes":112,"fuente":"IBC"}},{"type":"Feature","geometry":{"type":"Point","coordinates":[-73.077664769999956,-10.030522813675876]},"properties":{"nombre":"Onconashary","status":"En proceso de titulación","etnias":"Asháninka","no_habitantes":40,"fuente":"IBC"}},{"type":"Feature","geometry":{"type":"Point","coordinates":[-70.179338473999962,-4.1938566678621472]},"properties":{"nombre":"28 de Julio","status":"En proceso de titulación","etnias":"Ticuna","no_habitantes":64,"fuente":"IBC"}},{"type":"Feature","geometry":{"type":"Point","coordinates":[-73.516334334999954,-4.4489506968537951]},"properties":{"nombre":"San Francisco","status":"En proceso de titulación","etnias":"Urarina","no_habitantes":400,"fuente":"IBC"}},{"type":"Feature","geometry":{"type":"Point","coordinates":[-74.794962783999949,-5.8877192488071186]},"properties":{"nombre":"San Rafael","status":"En proceso de titulación","etnias":"Cocama-Cocamilla (Kukama-Kukamiria)","no_habitantes":190,"fuente":"IBC"}},{"type":"Feature","geometry":{"type":"Point","coordinates":[-74.012423195999986,-8.6743792487182585]},"properties":{"nombre":"La Morada","status":"En proceso de reconocimiento","etnias":"Asháninka","no_habitantes":20,"fuente":"IBC"}},{"type":"Feature","geometry":{"type":"Point","coordinates":[-75.913112773999956,-6.5098748987871087]},"properties":{"nombre":"Pongo del Huallaga","status":"En proceso de titulación","etnias":"Quechua, Lamas (Kichwa)","no_habitantes":50,"fuente":"IBC"}},{"type":"Feature","geometry":{"type":"Point","coordinates":[-71.756123979999984,-3.3965179898881979]},"properties":{"nombre":"San Pedro de Shishita - Río Amazonas","status":"En proceso de titulación","etnias":"Yagua","no_habitantes":260,"fuente":"IBC"}},{"type":"Feature","geometry":{"type":"Point","coordinates":[-71.522157989999982,-2.315920009923659]},"properties":{"nombre":"Puerto Miraflores","status":"En proceso de reconocimiento","etnias":"Quechua, No Especificado","no_habitantes":11,"fuente":"IBC"}},{"type":"Feature","geometry":{"type":"Point","coordinates":[-73.836038954999935,-4.655885000847066]},"properties":{"nombre":"Buenos Aires","status":"En proceso de titulación","etnias":"Cocama-Cocamilla (Kukama-Kukamiria)","no_habitantes":120,"fuente":"IBC"}},{"type":"Feature","geometry":{"type":"Point","coordinates":[-76.606736621999971,-6.3581723867920008]},"properties":{"nombre":"Mishki Yakillu","status":"En proceso de titulación","etnias":"Quechua, Lamas (Kichwa)","no_habitantes":354,"fuente":"IBC"}},{"type":"Feature","geometry":{"type":"Point","coordinates":[-74.567093789999944,-6.4412319847893027]},"properties":{"nombre":"Víctor Raúl","status":"En proceso de titulación","etnias":"Cocama-Cocamilla (Kukama-Kukamiria)","no_habitantes":62,"fuente":"IBC"}},{"type":"Feature","geometry":{"type":"Point","coordinates":[-74.693919999999935,-11.219664999639367]},"properties":{"nombre":"San Luis de Timari","status":"En proceso de titulación","etnias":"Asháninka","no_habitantes":0,"fuente":"IBC"}},{"type":"Feature","geometry":{"type":"Point","coordinates":[-74.237617137999962,-11.699035354624831]},"properties":{"nombre":"Mencoriari","status":"En proceso de titulación","etnias":"Nomatsiguenga","no_habitantes":165,"fuente":"IBC"}},{"type":"Feature","geometry":{"type":"Point","coordinates":[-74.100309989999971,-4.547417674850621]},"properties":{"nombre":"Sucre de San Pablo de Tipishca","status":"En proceso de titulación","etnias":"Cocama-Cocamilla (Kukama-Kukamiria)","no_habitantes":0,"fuente":"IBC"}},{"type":"Feature","geometry":{"type":"Point","coordinates":[-73.201496431999942,-3.4305220358870887]},"properties":{"nombre":"Flor de Agosto","status":"En proceso de reconocimiento","etnias":"Quechua, Napo (Kichwa)","no_habitantes":85,"fuente":"IBC"}},{"type":"Feature","geometry":{"type":"Point","coordinates":[-76.575218682999946,-6.4347717197895253]},"properties":{"nombre":"Kichwa de Pukallpa","status":"En proceso de titulación","etnias":"Quechua, Lamas (Kichwa)","no_habitantes":109,"fuente":"IBC"}},{"type":"Feature","geometry":{"type":"Point","coordinates":[-74.176621980999982,-11.738310937623593]},"properties":{"nombre":"Santa Fé de Yaviroa","status":"En proceso de reconocimiento","etnias":"Asháninka","no_habitantes":91,"fuente":"IBC"}},{"type":"Feature","geometry":{"type":"Point","coordinates":[-74.89339672899996,-9.6073315026890391]},"properties":{"nombre":"Nazareth","status":"En proceso de reconocimiento","etnias":"Asháninka","no_habitantes":60,"fuente":"IBC"}},{"type":"Feature","geometry":{"type":"Point","coordinates":[-76.915606150999963,-5.1336581148315386]},"properties":{"nombre":"Shimpai Ninanau","status":"En proceso de titulación","etnias":"Chayahuita (Shawi)","no_habitantes":0,"fuente":"IBC"}},{"type":"Feature","geometry":{"type":"Point","coordinates":[-74.495224849999943,-10.941977603647816]},"properties":{"nombre":"Villacorta","status":"En proceso de reconocimiento","etnias":"Asháninka","no_habitantes":60,"fuente":"IBC"}},{"type":"Feature","geometry":{"type":"Point","coordinates":[-71.41139499999997,-3.8813629698723249]},"properties":{"nombre":"Santa Elena de Imasa","status":"En proceso de titulación","etnias":"Yagua","no_habitantes":700,"fuente":"IBC"}},{"type":"Feature","geometry":{"type":"Point","coordinates":[-73.670991458999936,-10.769155671653131]},"properties":{"nombre":"Tres Colinas","status":"En proceso de titulación","etnias":"Asháninka","no_habitantes":100,"fuente":"IBC"}},{"type":"Feature","geometry":{"type":"Point","coordinates":[-71.206296596999948,-4.3755772868562]},"properties":{"nombre":"Foli - Montes de los Olivos","status":"En proceso de titulación","etnias":"Quechua, No Especificado","no_habitantes":18,"fuente":"IBC"}},{"type":"Feature","geometry":{"type":"Point","coordinates":[-73.84077091499995,-12.152853606611108]},"properties":{"nombre":"Shimashirinkani","status":"En proceso de reconocimiento","etnias":"NO EXISTE","no_habitantes":0,"fuente":"IBC"}},{"type":"Feature","geometry":{"type":"Point","coordinates":[-76.547530097999982,-6.4351276197895029]},"properties":{"nombre":"Anak Churu Yacu","status":"En proceso de titulación","etnias":"Quechua, Lamas (Kichwa)","no_habitantes":60,"fuente":"IBC"}},{"type":"Feature","geometry":{"type":"Point","coordinates":[-76.027620009999964,-6.5672697737852674]},"properties":{"nombre":"Túpac Amaru","status":"En proceso de titulación","etnias":"Quechua, Lamas (Kichwa)","no_habitantes":700,"fuente":"IBC"}},{"type":"Feature","geometry":{"type":"Point","coordinates":[-76.560855258999936,-6.4173630387900795]},"properties":{"nombre":"Konkonpera","status":"En proceso de titulación","etnias":"Quechua, Lamas (Kichwa)","no_habitantes":52,"fuente":"IBC"}},{"type":"Feature","geometry":{"type":"Point","coordinates":[-73.966397293999989,-10.542600864660079]},"properties":{"nombre":"Nuevo Progreso de Atalaya","status":"En proceso de reconocimiento","etnias":"Asháninka","no_habitantes":105,"fuente":"IBC"}},{"type":"Feature","geometry":{"type":"Point","coordinates":[-73.968173364999984,-9.5998313946892839]},"properties":{"nombre":"Nueva Vida de Sheshea","status":"En proceso de titulación","etnias":"Ashéninka","no_habitantes":310,"fuente":"IBC"}},{"type":"Feature","geometry":{"type":"Point","coordinates":[-73.032862205999947,-3.3480903748897974]},"properties":{"nombre":"Yuracyacu Altura","status":"En proceso de titulación","etnias":"NO EXISTE","no_habitantes":240,"fuente":"IBC"}},{"type":"Feature","geometry":{"type":"Point","coordinates":[-73.852239679999968,-10.665176808656311]},"properties":{"nombre":"Nueva Bellavista de Sapani","status":"En proceso de reconocimiento","etnias":"Asháninka","no_habitantes":108,"fuente":"IBC"}},{"type":"Feature","geometry":{"type":"Point","coordinates":[-73.96199758299997,-10.590070547658645]},"properties":{"nombre":"Las Palmeras","status":"En proceso de reconocimiento","etnias":"Asháninka","no_habitantes":140,"fuente":"IBC"}},{"type":"Feature","geometry":{"type":"Point","coordinates":[-76.408243294999977,-6.0523642178018617]},"properties":{"nombre":"Nuevo Pizana","status":"En proceso de titulación","etnias":"Chayahuita (Shawi)","no_habitantes":60,"fuente":"IBC"}},{"type":"Feature","geometry":{"type":"Point","coordinates":[-70.644297969999968,-3.8325669698739415]},"properties":{"nombre":"Isla del Tigre","status":"En proceso de titulación","etnias":"Cocama-Cocamilla (Kukama-Kukamiria)","no_habitantes":300,"fuente":"IBC"}},{"type":"Feature","geometry":{"type":"Point","coordinates":[-74.092922270999964,-9.6299888246883132]},"properties":{"nombre":"San Jorge","status":"En proceso de reconocimiento","etnias":"Ashéninka","no_habitantes":36,"fuente":"IBC"}},{"type":"Feature","geometry":{"type":"Point","coordinates":[-74.250777968999955,-5.1398429678313171]},"properties":{"nombre":"San Pedro - Río Puinahua","status":"En proceso de titulación","etnias":"Cocama-Cocamilla (Kukama-Kukamiria)","no_habitantes":40,"fuente":"IBC"}},{"type":"Feature","geometry":{"type":"Point","coordinates":[-73.254772557999956,-3.6906008028785582]},"properties":{"nombre":"Santo Tomas","status":"En proceso de titulación","etnias":"Cocama-Cocamilla (Kukama-Kukamiria)","no_habitantes":0,"fuente":"IBC"}},{"type":"Feature","geometry":{"type":"Point","coordinates":[-73.508386227999949,-10.021256056676188]},"properties":{"nombre":"Antamite - Tierra Prometida","status":"En proceso de reconocimiento","etnias":"Ashéninka","no_habitantes":150,"fuente":"IBC"}},{"type":"Feature","geometry":{"type":"Point","coordinates":[-74.498823434999963,-10.995151452646205]},"properties":{"nombre":"Mango Verde","status":"En proceso de reconocimiento","etnias":"Asháninka","no_habitantes":32,"fuente":"IBC"}},{"type":"Feature","geometry":{"type":"Point","coordinates":[-75.416324370999973,-4.939190937837882]},"properties":{"nombre":"Vista Alegre","status":"En proceso de titulación","etnias":"Cocama-Cocamilla (Kukama-Kukamiria)","no_habitantes":58,"fuente":"IBC"}},{"type":"Feature","geometry":{"type":"Point","coordinates":[-78.265703152999947,-5.0523112558341818]},"properties":{"nombre":"Saunak","status":"En proceso de reconocimiento","etnias":"Aguaruna (Awajun)","no_habitantes":47,"fuente":"IBC"}},{"type":"Feature","geometry":{"type":"Point","coordinates":[-70.806054039999935,-3.9218289598710383]},"properties":{"nombre":"Paranaquiro","status":"En proceso de reconocimiento","etnias":"Ticuna","no_habitantes":380,"fuente":"IBC"}},{"type":"Feature","geometry":{"type":"Point","coordinates":[-74.79424242999994,-9.5165226546918742]},"properties":{"nombre":"Alto Río Negro del Sira","status":"En proceso de titulación","etnias":"Asháninka","no_habitantes":14,"fuente":"IBC"}},{"type":"Feature","geometry":{"type":"Point","coordinates":[-73.644037078999986,-12.548034489599294]},"properties":{"nombre":"Maguireni","status":"En proceso de titulación","etnias":"NO EXISTE","no_habitantes":0,"fuente":"IBC"}},{"type":"Feature","geometry":{"type":"Point","coordinates":[-73.821297696999977,-2.3420731729228055]},"properties":{"nombre":"Isla Yarina","status":"En proceso de titulación","etnias":"Quechua, Napo (Kichwa)","no_habitantes":77,"fuente":"IBC"}},{"type":"Feature","geometry":{"type":"Point","coordinates":[-71.008871244999966,-10.158955321671909]},"properties":{"nombre":"Dina","status":"En proceso de titulación","etnias":"Sharanahua","no_habitantes":38,"fuente":"IBC"}},{"type":"Feature","geometry":{"type":"Point","coordinates":[-73.955404777999945,-11.01687393764554]},"properties":{"nombre":"Noronkiari","status":"En proceso de titulación","etnias":"Asháninka","no_habitantes":100,"fuente":"IBC"}},{"type":"Feature","geometry":{"type":"Point","coordinates":[-75.667617982999957,-5.0356423768347129]},"properties":{"nombre":"Paraiso","status":"En proceso de titulación","etnias":"Cocama-Cocamilla (Kukama-Kukamiria)","no_habitantes":0,"fuente":"IBC"}},{"type":"Feature","geometry":{"type":"Point","coordinates":[-73.692007012999966,-12.619132784597186]},"properties":{"nombre":"Quepitoshiari","status":"En proceso de titulación","etnias":"NO EXISTE","no_habitantes":0,"fuente":"IBC"}},{"type":"Feature","geometry":{"type":"Point","coordinates":[-74.15201721699998,-10.625645897657542]},"properties":{"nombre":"San Miguel","status":"En proceso de reconocimiento","etnias":"Ashéninka","no_habitantes":0,"fuente":"IBC"}},{"type":"Feature","geometry":{"type":"Point","coordinates":[-76.951368185999968,-3.0742013198987395]},"properties":{"nombre":"Sanchik","status":"En proceso de reconocimiento","etnias":"Achuar","no_habitantes":241,"fuente":"IBC"}},{"type":"Feature","geometry":{"type":"Point","coordinates":[-76.573506016999943,-5.819614141809371]},"properties":{"nombre":"Nuevo Cusco","status":"En proceso de titulación","etnias":"Chayahuita (Shawi)","no_habitantes":150,"fuente":"IBC"}},{"type":"Feature","geometry":{"type":"Point","coordinates":[-74.403591146999986,-4.6668445948467046]},"properties":{"nombre":"Nueva Arica","status":"En proceso de titulación","etnias":"Cocama-Cocamilla (Kukama-Kukamiria)","no_habitantes":211,"fuente":"IBC"}},{"type":"Feature","geometry":{"type":"Point","coordinates":[-70.330176009999946,-3.8104379898746732]},"properties":{"nombre":"San Antonio de Cacao","status":"En proceso de reconocimiento","etnias":"Ticuna","no_habitantes":199,"fuente":"IBC"}},{"type":"Feature","geometry":{"type":"Point","coordinates":[-76.594489005999947,-6.7369456077797976]},"properties":{"nombre":"Barranquita","status":"En proceso de titulación","etnias":"Quechua, Lamas (Kichwa)","no_habitantes":900,"fuente":"IBC"}},{"type":"Feature","geometry":{"type":"Point","coordinates":[-74.05033588699996,-5.118645074832048]},"properties":{"nombre":"Carocurahuayte","status":"En proceso de titulación","etnias":"Cocama-Cocamilla (Kukama-Kukamiria)","no_habitantes":116,"fuente":"IBC"}},{"type":"Feature","geometry":{"type":"Point","coordinates":[-76.486958536999964,-6.8266664697769572]},"properties":{"nombre":"San Juan de Miraflores","status":"En proceso de titulación","etnias":"Quechua, Lamas (Kichwa)","no_habitantes":70,"fuente":"IBC"}},{"type":"Feature","geometry":{"type":"Point","coordinates":[-74.759753209999985,-6.2040336737969515]},"properties":{"nombre":"Buenavista","status":"En proceso de reconocimiento","etnias":"Cocama-Cocamilla (Kukama-Kukamiria)","no_habitantes":39,"fuente":"IBC"}},{"type":"Feature","geometry":{"type":"Point","coordinates":[-75.777023726999971,-6.2461855987955817]},"properties":{"nombre":"Atún Mayo Puerto Mercedes","status":"En proceso de titulación","etnias":"Quechua, Lamas (Kichwa)","no_habitantes":176,"fuente":"IBC"}},{"type":"Feature","geometry":{"type":"Point","coordinates":[-76.090828031999934,-6.648979824782657]},"properties":{"nombre":"Allima Sachayok Siyambayoc Pampa","status":"En proceso de titulación","etnias":"Quechua, Lamas (Kichwa)","no_habitantes":350,"fuente":"IBC"}},{"type":"Feature","geometry":{"type":"Point","coordinates":[-76.834741017999988,-4.0580153908665872]},"properties":{"nombre":"Puerto Unguri","status":"En proceso de titulación","etnias":"Candoshi (Kandozi)","no_habitantes":63,"fuente":"IBC"}},{"type":"Feature","geometry":{"type":"Point","coordinates":[-75.705053818999943,-6.3342187417927676]},"properties":{"nombre":"San Pablo de Tipishca","status":"En proceso de titulación","etnias":"Quechua, Lamas (Kichwa)","no_habitantes":490,"fuente":"IBC"}},{"type":"Feature","geometry":{"type":"Point","coordinates":[-73.723898134999956,-2.6684445919120749]},"properties":{"nombre":"Buena Vista II Zona","status":"En proceso de titulación","etnias":"Arabela","no_habitantes":35,"fuente":"DISAFILPA"}},{"type":"Feature","geometry":{"type":"Point","coordinates":[-73.949026457999935,-5.0308127318348967]},"properties":{"nombre":"Yuracocha - Río Ucayali","status":"En proceso de titulación","etnias":"Cocama-Cocamilla (Kukama-Kukamiria)","no_habitantes":40,"fuente":"IBC"}},{"type":"Feature","geometry":{"type":"Point","coordinates":[-73.979031345999942,-5.0101921768355737]},"properties":{"nombre":"Nuevo Pucate - Quebrada Yanayacu","status":"En proceso de titulación","etnias":"Cocama-Cocamilla (Kukama-Kukamiria)","no_habitantes":170,"fuente":"IBC"}},{"type":"Feature","geometry":{"type":"Point","coordinates":[-76.653012580999984,-4.072208369866094]},"properties":{"nombre":"Nuevo Progreso","status":"En proceso de titulación","etnias":"Candoshi (Kandozi)","no_habitantes":155,"fuente":"IBC"}},{"type":"Feature","geometry":{"type":"Point","coordinates":[-74.385979449999979,-2.0732349919316073]},"properties":{"nombre":"Nueva Holanda","status":"En proceso de titulación","etnias":"Quechua, Napo (Kichwa)","no_habitantes":80,"fuente":"IBC"}},{"type":"Feature","geometry":{"type":"Point","coordinates":[-74.779208320999942,-6.4325025897895989]},"properties":{"nombre":"Arica","status":"En proceso de reconocimiento","etnias":"Cocama-Cocamilla (Kukama-Kukamiria)","no_habitantes":30,"fuente":"IBC"}},{"type":"Feature","geometry":{"type":"Point","coordinates":[-72.76682180399996,-9.517232162691851]},"properties":{"nombre":"Shoniro","status":"En proceso de titulación","etnias":"Asháninka","no_habitantes":10,"fuente":"IBC"}},{"type":"Feature","geometry":{"type":"Point","coordinates":[-76.097797827999955,-6.376498361791394]},"properties":{"nombre":"Santa Rosa de Kachisapa","status":"En proceso de titulación","etnias":"Quechua, Lamas (Kichwa)","no_habitantes":230,"fuente":"IBC"}},{"type":"Feature","geometry":{"type":"Point","coordinates":[-73.596853906999968,-10.089004361674101]},"properties":{"nombre":"Checopiari","status":"En proceso de titulación","etnias":"Asháninka","no_habitantes":59,"fuente":"IBC"}},{"type":"Feature","geometry":{"type":"Point","coordinates":[-73.480608184999937,-9.551076289690803]},"properties":{"nombre":"Flor de Tahuantinsuyo","status":"En proceso de reconocimiento","etnias":"Shipibo-Conibo","no_habitantes":0,"fuente":"IBC"}},{"type":"Feature","geometry":{"type":"Point","coordinates":[-76.53952450099996,-6.448435921789061]},"properties":{"nombre":"Alto Churu Yaku Molosho","status":"En proceso de titulación","etnias":"Quechua, Lamas (Kichwa)","no_habitantes":150,"fuente":"IBC"}},{"type":"Feature","geometry":{"type":"Point","coordinates":[-73.369816594999975,-11.217515131639436]},"properties":{"nombre":"Ayllu","status":"En proceso de reconocimiento","etnias":"Ashéninka","no_habitantes":45,"fuente":"IBC"}},{"type":"Feature","geometry":{"type":"Point","coordinates":[-74.639283524999939,-5.7694336028109392]},"properties":{"nombre":"Santa Elena","status":"En proceso de reconocimiento","etnias":"Cocama-Cocamilla (Kukama-Kukamiria)","no_habitantes":120,"fuente":"IBC"}},{"type":"Feature","geometry":{"type":"Point","coordinates":[-78.342204450999986,-5.080470468833302]},"properties":{"nombre":"Uyaientsa","status":"En proceso de reconocimiento","etnias":"Aguaruna (Awajun)","no_habitantes":70,"fuente":"IBC"}},{"type":"Feature","geometry":{"type":"Point","coordinates":[-71.782739039999967,-3.3795179798887527]},"properties":{"nombre":"Santa Lucia de Prefecto","status":"En proceso de titulación","etnias":"Yagua","no_habitantes":130,"fuente":"IBC"}},{"type":"Feature","geometry":{"type":"Point","coordinates":[-73.873904493999987,-2.4342893289197769]},"properties":{"nombre":"Nuevo Progreso de Rango Isla","status":"En proceso de titulación","etnias":"Quechua, Napo (Kichwa)","no_habitantes":220,"fuente":"DISAFILPA"}},{"type":"Feature","geometry":{"type":"Point","coordinates":[-74.36003416799997,-5.3367395348249476]},"properties":{"nombre":"San Carlos I Zona - Río Puinahua","status":"En proceso de titulación","etnias":"Cocama-Cocamilla (Kukama-Kukamiria)","no_habitantes":246,"fuente":"IBC"}},{"type":"Feature","geometry":{"type":"Point","coordinates":[-74.990122758999973,-10.973234681646865]},"properties":{"nombre":"Bajo Picaflor","status":"En proceso de titulación","etnias":"Asháninka","no_habitantes":89,"fuente":"IBC"}},{"type":"Feature","geometry":{"type":"Point","coordinates":[-74.010205265999957,-5.1913352008296876]},"properties":{"nombre":"Lago Caro Curahuayte de Sinar - Río Ucayali","status":"En proceso de titulación","etnias":"Cocama-Cocamilla (Kukama-Kukamiria)","no_habitantes":400,"fuente":"IBC"}},{"type":"Feature","geometry":{"type":"Point","coordinates":[-74.022314488999939,-10.488248979661794]},"properties":{"nombre":"Nueva Libertad de Shinipo","status":"En proceso de reconocimiento","etnias":"Ashéninka","no_habitantes":150,"fuente":"IBC"}},{"type":"Feature","geometry":{"type":"Point","coordinates":[-75.795533975999945,-6.5297346697864427]},"properties":{"nombre":"Anak Kurutuyacu","status":"En proceso de titulación","etnias":"Quechua, Lamas (Kichwa)","no_habitantes":180,"fuente":"IBC"}},{"type":"Feature","geometry":{"type":"Point","coordinates":[-71.010919758999933,-4.3849072618559033]},"properties":{"nombre":"Nuevo San Juan del Yavarí","status":"En proceso de titulación","etnias":"Asháninka","no_habitantes":34,"fuente":"IBC"}},{"type":"Feature","geometry":{"type":"Point","coordinates":[-77.595008962999941,-3.4275284058871898]},"properties":{"nombre":"Kusuim","status":"En proceso de titulación","etnias":"Huambisa (Wampis)","no_habitantes":127,"fuente":"IBC"}},{"type":"Feature","geometry":{"type":"Point","coordinates":[-75.210744378999948,-10.600347119658341]},"properties":{"nombre":"Alto Puruz","status":"En proceso de titulación","etnias":"Amuesha (Yánesha)","no_habitantes":66,"fuente":"IBC"}},{"type":"Feature","geometry":{"type":"Point","coordinates":[-72.610184685999968,-10.595821260658466]},"properties":{"nombre":"Alto Esperanza del Rio Inuya","status":"En proceso de titulación","etnias":"Amahuaca","no_habitantes":70,"fuente":"IBC"}},{"type":"Feature","geometry":{"type":"Point","coordinates":[-74.876594404999935,-4.7049113558454962]},"properties":{"nombre":"Nueva Elmira","status":"En proceso de titulación","etnias":"Cocama-Cocamilla (Kukama-Kukamiria)","no_habitantes":80,"fuente":"IBC"}},{"type":"Feature","geometry":{"type":"Point","coordinates":[-76.852538467999977,-4.838386095841158]},"properties":{"nombre":"Huamachuco","status":"En proceso de titulación","etnias":"NO EXISTE","no_habitantes":53,"fuente":"IBC"}},{"type":"Feature","geometry":{"type":"Point","coordinates":[-75.150781128999938,-4.8299850178414125]},"properties":{"nombre":"San Antonio","status":"En proceso de titulación","etnias":"Cocama-Cocamilla (Kukama-Kukamiria)","no_habitantes":331,"fuente":"IBC"}},{"type":"Feature","geometry":{"type":"Point","coordinates":[-76.75243145099995,-5.8319175518089308]},"properties":{"nombre":"Bichanak","status":"En proceso de titulación","etnias":"Aguaruna (Awajun)","no_habitantes":61,"fuente":"IBC"}},{"type":"Feature","geometry":{"type":"Point","coordinates":[-76.546002555999962,-6.4976821937874831]},"properties":{"nombre":"Vistoso Grande","status":"En proceso de titulación","etnias":"Quechua, Lamas (Kichwa)","no_habitantes":112,"fuente":"IBC"}},{"type":"Feature","geometry":{"type":"Point","coordinates":[-74.268098051999971,-11.836710858620627]},"properties":{"nombre":"Tincabeni","status":"En proceso de titulación","etnias":"Nomatsiguenga","no_habitantes":93,"fuente":"IBC"}},{"type":"Feature","geometry":{"type":"Point","coordinates":[-73.307836048999945,-9.8295141436821485]},"properties":{"nombre":"Mangual","status":"En proceso de reconocimiento","etnias":"Asháninka","no_habitantes":30,"fuente":"IBC"}},{"type":"Feature","geometry":{"type":"Point","coordinates":[-76.278353290999974,-4.6913758998459443]},"properties":{"nombre":"San Sebastian","status":"En proceso de titulación","etnias":"Quechua, Pastaza (Kichwa)","no_habitantes":28,"fuente":"IBC"}},{"type":"Feature","geometry":{"type":"Point","coordinates":[-76.718271766999976,-5.6502617578148069]},"properties":{"nombre":"Florida","status":"En proceso de titulación","etnias":"Chayahuita (Shawi)","no_habitantes":0,"fuente":"AIDESEP"}},{"type":"Feature","geometry":{"type":"Point","coordinates":[-70.841797668999959,-9.8098385026827604]},"properties":{"nombre":"Flor de Mayo","status":"En proceso de reconocimiento","etnias":"Sharanahua","no_habitantes":25,"fuente":"IBC"}},{"type":"Feature","geometry":{"type":"Point","coordinates":[-75.975209746999951,-6.4415424267892956]},"properties":{"nombre":"Ankash Yaku de Achinamisa","status":"En proceso de titulación","etnias":"Quechua, Lamas (Kichwa)","no_habitantes":120,"fuente":"IBC"}},{"type":"Feature","geometry":{"type":"Point","coordinates":[-74.275819189999936,-5.852940497808266]},"properties":{"nombre":"28 de Julio - Río Juanache","status":"En proceso de titulación","etnias":"Cocama-Cocamilla (Kukama-Kukamiria)","no_habitantes":300,"fuente":"IBC"}},{"type":"Feature","geometry":{"type":"Point","coordinates":[-76.24360489999998,-4.9216679568384398]},"properties":{"nombre":"San Isidro Bajo Pastaza","status":"En proceso de titulación","etnias":"Quechua, Pastaza (Kichwa)","no_habitantes":363,"fuente":"IBC"}},{"type":"Feature","geometry":{"type":"Point","coordinates":[-76.520511341999963,-5.8266685148090991]},"properties":{"nombre":"Achayacu","status":"En proceso de titulación","etnias":"Chayahuita (Shawi)","no_habitantes":40,"fuente":"DISAFILPA"}},{"type":"Feature","geometry":{"type":"Point","coordinates":[-72.902743998999938,-10.02187961367615]},"properties":{"nombre":"Nueva Luz de Arara","status":"En proceso de titulación","etnias":"Ashéninka","no_habitantes":72,"fuente":"IBC"}},{"type":"Feature","geometry":{"type":"Point","coordinates":[-74.286556249999933,-4.6758537638464261]},"properties":{"nombre":"Leoncio Prado","status":"En proceso de titulación","etnias":"Cocama-Cocamilla (Kukama-Kukamiria)","no_habitantes":590,"fuente":"IBC"}},{"type":"Feature","geometry":{"type":"Point","coordinates":[-74.672302127999956,-0.37329501098761514]},"properties":{"nombre":"Ñukanchipa Allpa","status":"En proceso de reconocimiento","etnias":"Quechua, Napo (Kichwa)","no_habitantes":120,"fuente":"IBC"}},{"type":"Feature","geometry":{"type":"Point","coordinates":[-72.119160642999987,-3.5297758158838088]},"properties":{"nombre":"Santa Elena de Miraflores","status":"En proceso de reconocimiento","etnias":"Yagua","no_habitantes":73,"fuente":"IBC"}},{"type":"Feature","geometry":{"type":"Point","coordinates":[-70.335312019999947,-3.8518699898733075]},"properties":{"nombre":"San Pedro de Cacao","status":"En proceso de reconocimiento","etnias":"Ticuna","no_habitantes":378,"fuente":"IBC"}},{"type":"Feature","geometry":{"type":"Point","coordinates":[-77.116706086999955,-4.5566306428503038]},"properties":{"nombre":"San José de Paragua Poza","status":"En proceso de titulación","etnias":"Huambisa (Wampis)","no_habitantes":26,"fuente":"IBC"}},{"type":"Feature","geometry":{"type":"Point","coordinates":[-74.100647637999941,-5.092874738832891]},"properties":{"nombre":"Arica Viejo - Ucayali","status":"En proceso de titulación","etnias":"Cocama-Cocamilla (Kukama-Kukamiria)","no_habitantes":315,"fuente":"IBC"}},{"type":"Feature","geometry":{"type":"Point","coordinates":[-73.356566293999947,-11.232069796638971]},"properties":{"nombre":"Sankoroharo","status":"En proceso de titulación","etnias":"Asháninka","no_habitantes":0,"fuente":"IBC"}},{"type":"Feature","geometry":{"type":"Point","coordinates":[-73.660751284999947,-10.618718191657756]},"properties":{"nombre":"Chengari","status":"En proceso de reconocimiento","etnias":"Asháninka","no_habitantes":0,"fuente":"IBC"}},{"type":"Feature","geometry":{"type":"Point","coordinates":[-76.396240469999952,-6.175651004797869]},"properties":{"nombre":"San Hilarion del Alto Shanusi","status":"En proceso de titulación","etnias":"Quechua, Lamas (Kichwa)","no_habitantes":95,"fuente":"IBC"}},{"type":"Feature","geometry":{"type":"Point","coordinates":[-77.220956993999948,-4.187690859862359]},"properties":{"nombre":"Bella Vista","status":"En proceso de titulación","etnias":"Shapra (Chapara)","no_habitantes":34,"fuente":"IBC"}},{"type":"Feature","geometry":{"type":"Point","coordinates":[-74.504522806999944,-5.6903599948135053]},"properties":{"nombre":"Nuevo Junín","status":"En proceso de titulación","etnias":"Cocama-Cocamilla (Kukama-Kukamiria)","no_habitantes":390,"fuente":"IBC"}},{"type":"Feature","geometry":{"type":"Point","coordinates":[-70.34864996999994,-3.9382200198704829]},"properties":{"nombre":"Cahuide Yanayacu","status":"En proceso de titulación","etnias":"Yagua","no_habitantes":362,"fuente":"IBC"}},{"type":"Feature","geometry":{"type":"Point","coordinates":[-74.859976354999958,-0.24500050299189272]},"properties":{"nombre":"Puerto Libertad","status":"En proceso de reconocimiento","etnias":"Quechua, Napo (Kichwa)","no_habitantes":150,"fuente":"IBC"}},{"type":"Feature","geometry":{"type":"Point","coordinates":[-77.868259107999961,-4.5573934058502896]},"properties":{"nombre":"Pujupat","status":"En proceso de titulación","etnias":"Aguaruna (Awajun)","no_habitantes":78,"fuente":"IBC"}},{"type":"Feature","geometry":{"type":"Point","coordinates":[-74.79536124599997,-6.4055970987904827]},"properties":{"nombre":"Morro de Arica","status":"En proceso de reconocimiento","etnias":"Cocama-Cocamilla (Kukama-Kukamiria)","no_habitantes":0,"fuente":"IBC"}},{"type":"Feature","geometry":{"type":"Point","coordinates":[-73.239897208999935,-3.6566884508797104]},"properties":{"nombre":"El Milagro","status":"En proceso de titulación","etnias":"Cocama-Cocamilla (Kukama-Kukamiria)","no_habitantes":150,"fuente":"IBC"}},{"type":"Feature","geometry":{"type":"Point","coordinates":[-72.738154083999973,-9.8661330116810095]},"properties":{"nombre":"Nueva Bella","status":"En proceso de titulación","etnias":"Ashéninka","no_habitantes":72,"fuente":"IBC"}},{"type":"Feature","geometry":{"type":"Point","coordinates":[-74.555151860999956,-5.7446781178117812]},"properties":{"nombre":"Nuevo Carachama","status":"En proceso de titulación","etnias":"Cocama-Cocamilla (Kukama-Kukamiria)","no_habitantes":943,"fuente":"IBC"}},{"type":"Feature","geometry":{"type":"Point","coordinates":[-74.317636793999952,-5.210820069829051]},"properties":{"nombre":"07 de Junio - Río Puinahua","status":"En proceso de titulación","etnias":"Cocama-Cocamilla (Kukama-Kukamiria)","no_habitantes":180,"fuente":"IBC"}},{"type":"Feature","geometry":{"type":"Point","coordinates":[-71.845820372999981,-3.3253128288905045]},"properties":{"nombre":"2 de Abril Mangual","status":"En proceso de reconocimiento","etnias":"Yagua","no_habitantes":41,"fuente":"IBC"}},{"type":"Feature","geometry":{"type":"Point","coordinates":[-72.512983019999979,-9.9602525896780989]},"properties":{"nombre":"Nuevo Edén","status":"En proceso de reconocimiento","etnias":"Ashéninka","no_habitantes":12,"fuente":"IBC"}},{"type":"Feature","geometry":{"type":"Point","coordinates":[-73.940804401999969,-9.5898191626895866]},"properties":{"nombre":"Monte Sión de Sheshea","status":"En proceso de titulación","etnias":"Asháninka","no_habitantes":29,"fuente":"IBC"}},{"type":"Feature","geometry":{"type":"Point","coordinates":[-73.949815126999965,-9.8357154336819317]},"properties":{"nombre":"Colpa","status":"En proceso de titulación","etnias":"Asháninka","no_habitantes":75,"fuente":"IBC"}},{"type":"Feature","geometry":{"type":"Point","coordinates":[-76.780240594999952,-6.2386393797958206]},"properties":{"nombre":"Nangao","status":"En proceso de titulación","etnias":"Quechua, Lamas (Kichwa)","no_habitantes":134,"fuente":"IBC"}},{"type":"Feature","geometry":{"type":"Point","coordinates":[-77.75103975199994,-5.1704395938303662]},"properties":{"nombre":"Kugkumas","status":"En proceso de titulación","etnias":"Aguaruna (Awajun)","no_habitantes":69,"fuente":"IBC"}},{"type":"Feature","geometry":{"type":"Point","coordinates":[-76.487590993999959,-5.8756900378075363]},"properties":{"nombre":"Armanayacu","status":"En proceso de titulación","etnias":"Chayahuita (Shawi)","no_habitantes":39,"fuente":"DISAFILPA"}},{"type":"Feature","geometry":{"type":"Point","coordinates":[-76.759973341999967,-6.558088866785587]},"properties":{"nombre":"Nuevo Barranquita","status":"En proceso de titulación","etnias":"Quechua, Lamas (Kichwa)","no_habitantes":350,"fuente":"IBC"}},{"type":"Feature","geometry":{"type":"Point","coordinates":[-77.228989053999953,-3.9825135108690608]},"properties":{"nombre":"Fernando Rosas","status":"En proceso de titulación","etnias":"Huambisa (Wampis)","no_habitantes":0,"fuente":"IBC"}},{"type":"Feature","geometry":{"type":"Point","coordinates":[-74.85898087399994,-4.6774875278463934]},"properties":{"nombre":"18 de Julio - Río Marañón","status":"En proceso de titulación","etnias":"Cocama-Cocamilla (Kukama-Kukamiria)","no_habitantes":100,"fuente":"IBC"}},{"type":"Feature","geometry":{"type":"Point","coordinates":[-76.068495138999936,-6.5607897257854599]},"properties":{"nombre":"Sinchi Runa de Llucanayacu","status":"En proceso de titulación","etnias":"Quechua, Lamas (Kichwa)","no_habitantes":290,"fuente":"IBC"}},{"type":"Feature","geometry":{"type":"Point","coordinates":[-71.110394989999975,-4.004470999868329]},"properties":{"nombre":"Emilia Barcia Bonifatty","status":"En proceso de titulación","etnias":"Yagua","no_habitantes":118,"fuente":"IBC"}},{"type":"Feature","geometry":{"type":"Point","coordinates":[-75.547704803999977,-5.0472791868343592]},"properties":{"nombre":"Pucacuro del Río Marañón","status":"En proceso de titulación","etnias":"NO EXISTE","no_habitantes":315,"fuente":"IBC"}},{"type":"Feature","geometry":{"type":"Point","coordinates":[-74.156326959999944,-5.1470791128311202]},"properties":{"nombre":"Urarinas","status":"En proceso de titulación","etnias":"Cocama-Cocamilla (Kukama-Kukamiria)","no_habitantes":55,"fuente":"IBC"}},{"type":"Feature","geometry":{"type":"Point","coordinates":[-77.225011737999978,-3.9897201978687771]},"properties":{"nombre":"Musa Kandozi","status":"En proceso de titulación","etnias":"Huambisa (Wampis)","no_habitantes":48,"fuente":"IBC"}},{"type":"Feature","geometry":{"type":"Point","coordinates":[-74.278577779999978,-4.6664829838467492]},"properties":{"nombre":"Nueva Fortuna","status":"En proceso de titulación","etnias":"Cocama-Cocamilla (Kukama-Kukamiria)","no_habitantes":500,"fuente":"IBC"}},{"type":"Feature","geometry":{"type":"Point","coordinates":[-77.196340762999967,-3.9555440238699098]},"properties":{"nombre":"Nueva Esperanza de Pushaga","status":"En proceso de titulación","etnias":"Shapra (Chapara)","no_habitantes":22,"fuente":"IBC"}},{"type":"Feature","geometry":{"type":"Point","coordinates":[-71.646548819999964,-11.738302169623603]},"properties":{"nombre":"Tayakome","status":"En proceso de titulación","etnias":"Machiguenga (Matsigenka)","no_habitantes":175,"fuente":"FENAMAD"}},{"type":"Feature","geometry":{"type":"Point","coordinates":[-76.545809057999975,-4.8527572828406864]},"properties":{"nombre":"Bristol","status":"En proceso de reconocimiento","etnias":"Quechua, Pastaza (Kichwa)","no_habitantes":150,"fuente":"IBC"}},{"type":"Feature","geometry":{"type":"Point","coordinates":[-74.126462463999985,-4.4919997098524238]},"properties":{"nombre":"Alianza","status":"En proceso de titulación","etnias":"Cocama-Cocamilla (Kukama-Kukamiria)","no_habitantes":112,"fuente":"IBC"}},{"type":"Feature","geometry":{"type":"Point","coordinates":[-76.560685510999974,-6.4298879487897009]},"properties":{"nombre":"Shakapa","status":"En proceso de titulación","etnias":"Quechua, Lamas (Kichwa)","no_habitantes":64,"fuente":"IBC"}},{"type":"Feature","geometry":{"type":"Point","coordinates":[-74.463087584999982,-4.6313315398478894]},"properties":{"nombre":"Parinari","status":"En proceso de titulación","etnias":"Cocama-Cocamilla (Kukama-Kukamiria)","no_habitantes":215,"fuente":"IBC"}},{"type":"Feature","geometry":{"type":"Point","coordinates":[-74.355416702999946,-8.6121974907202059]},"properties":{"nombre":"Sol Naciente","status":"En proceso de titulación","etnias":"Shipibo-Conibo","no_habitantes":126,"fuente":"IBC"}},{"type":"Feature","geometry":{"type":"Point","coordinates":[-70.426997969999945,-2.5399989599162724]},"properties":{"nombre":"Huapapa","status":"En proceso de titulación","etnias":"Quechua, No Especificado","no_habitantes":400,"fuente":"IBC"}},{"type":"Feature","geometry":{"type":"Point","coordinates":[-74.161214818999952,-4.5101411578518213]},"properties":{"nombre":"San Martín del Marañón","status":"En proceso de titulación","etnias":"Cocama-Cocamilla (Kukama-Kukamiria)","no_habitantes":170,"fuente":"IBC"}},{"type":"Feature","geometry":{"type":"Point","coordinates":[-74.200159331999942,-4.5457715668506857]},"properties":{"nombre":"Firmeza - Río Marañon","status":"En proceso de titulación","etnias":"Cocama-Cocamilla (Kukama-Kukamiria)","no_habitantes":200,"fuente":"IBC"}},{"type":"Feature","geometry":{"type":"Point","coordinates":[-76.36372472499994,-5.8739440688075817]},"properties":{"nombre":"San Carlos de Armanayacu","status":"En proceso de titulación","etnias":"Chayahuita (Shawi)","no_habitantes":57,"fuente":"IBC"}},{"type":"Feature","geometry":{"type":"Point","coordinates":[-75.401353305999976,-4.8818367638397353]},"properties":{"nombre":"Chanchamayo","status":"En proceso de titulación","etnias":"Cocama-Cocamilla (Kukama-Kukamiria)","no_habitantes":208,"fuente":"IBC"}},{"type":"Feature","geometry":{"type":"Point","coordinates":[-77.360477697999954,-3.7179379088776692]},"properties":{"nombre":"Nueva Creación Chapra","status":"En proceso de titulación","etnias":"Achuar","no_habitantes":21,"fuente":"IBC"}},{"type":"Feature","geometry":{"type":"Point","coordinates":[-75.360033055999963,-9.8096501926827742]},"properties":{"nombre":"Los Angeles","status":"En proceso de reconocimiento","etnias":"Amuesha (Yánesha)","no_habitantes":56,"fuente":"IBC"}},{"type":"Feature","geometry":{"type":"Point","coordinates":[-75.107488123999985,-9.9905447236771412]},"properties":{"nombre":"Asociación Agricultores Indigenas Lorencillo","status":"En proceso de reconocimiento","etnias":"Amuesha (Yánesha)","no_habitantes":69,"fuente":"IBC"}},{"type":"Feature","geometry":{"type":"Point","coordinates":[-74.558593644999974,-5.8713264468076636]},"properties":{"nombre":"Nuevo Trujillo","status":"En proceso de titulación","etnias":"Cocama-Cocamilla (Kukama-Kukamiria)","no_habitantes":211,"fuente":"IBC"}},{"type":"Feature","geometry":{"type":"Point","coordinates":[-74.78760297499997,-4.6575306988470224]},"properties":{"nombre":"Berlin","status":"En proceso de titulación","etnias":"Cocama-Cocamilla (Kukama-Kukamiria)","no_habitantes":108,"fuente":"IBC"}},{"type":"Feature","geometry":{"type":"Point","coordinates":[-70.631784698999979,-4.1247384718643678]},"properties":{"nombre":"Paraíso","status":"En proceso de titulación","etnias":"Mayoruna (Matsés)","no_habitantes":29,"fuente":"IBC"}},{"type":"Feature","geometry":{"type":"Point","coordinates":[-75.616452801999969,-6.2658193637949857]},"properties":{"nombre":"San Manuel Nashatauri","status":"En proceso de titulación","etnias":"Chayahuita (Shawi)","no_habitantes":81,"fuente":"IBC"}},{"type":"Feature","geometry":{"type":"Point","coordinates":[-73.672212143999957,-10.113730198673334]},"properties":{"nombre":"Santa Isabel de Tahuanía","status":"En proceso de titulación","etnias":"Asháninka","no_habitantes":240,"fuente":"IBC"}},{"type":"Feature","geometry":{"type":"Point","coordinates":[-74.431749964999938,-10.796317326652284]},"properties":{"nombre":"Pamathanthani","status":"En proceso de titulación","etnias":"Ashéninka","no_habitantes":37,"fuente":"IBC"}},{"type":"Feature","geometry":{"type":"Point","coordinates":[-76.627525434999939,-4.7694957348433986]},"properties":{"nombre":"Nuevo Milagro","status":"En proceso de reconocimiento","etnias":"Chayahuita (Shawi)","no_habitantes":150,"fuente":"IBC"}},{"type":"Feature","geometry":{"type":"Point","coordinates":[-74.374174426999957,-10.925375719648368]},"properties":{"nombre":"Manichari","status":"En proceso de titulación","etnias":"Asháninka","no_habitantes":30,"fuente":"IBC"}},{"type":"Feature","geometry":{"type":"Point","coordinates":[-75.815717659999962,-4.3689073348564351]},"properties":{"nombre":"8 de Octubre","status":"En proceso de reconocimiento","etnias":"Urarina","no_habitantes":47,"fuente":"IBC"}},{"type":"Feature","geometry":{"type":"Point","coordinates":[-73.305368270999963,-10.556006207659646]},"properties":{"nombre":"Centro Bobinzana","status":"En proceso de titulación","etnias":"Asháninka","no_habitantes":0,"fuente":"IBC"}},{"type":"Feature","geometry":{"type":"Point","coordinates":[-73.247552317999975,-10.575326357659057]},"properties":{"nombre":"Paujilero","status":"En proceso de titulación","etnias":"Asháninka","no_habitantes":60,"fuente":"IBC"}},{"type":"Feature","geometry":{"type":"Point","coordinates":[-71.912414558999956,-11.80903670262148]},"properties":{"nombre":"Yomibato","status":"En proceso de titulación","etnias":"Machiguenga (Matsigenka)","no_habitantes":400,"fuente":"FENAMAD"}},{"type":"Feature","geometry":{"type":"Point","coordinates":[-76.482921545999943,-6.401470511790583]},"properties":{"nombre":"El Naranjal","status":"En proceso de titulación","etnias":"Quechua, Lamas (Kichwa)","no_habitantes":120,"fuente":"IBC"}},{"type":"Feature","geometry":{"type":"Point","coordinates":[-76.809871896999937,-6.4799445387880947]},"properties":{"nombre":"Puka Rumi","status":"En proceso de titulación","etnias":"Quechua, Lamas (Kichwa)","no_habitantes":90,"fuente":"IBC"}},{"type":"Feature","geometry":{"type":"Point","coordinates":[-75.910453127999972,-5.614724000815972]},"properties":{"nombre":"Santa Gema del Yanayaquillo","status":"En proceso de titulación","etnias":"NO EXISTE","no_habitantes":191,"fuente":"IBC"}},{"type":"Feature","geometry":{"type":"Point","coordinates":[-76.932522584999958,-4.8273487808415032]},"properties":{"nombre":"Nueva Santa Rosa","status":"En proceso de titulación","etnias":"Chayahuita (Shawi)","no_habitantes":230,"fuente":"IBC"}},{"type":"Feature","geometry":{"type":"Point","coordinates":[-76.813949327999978,-6.7647785297789138]},"properties":{"nombre":"Bajo Mayo","status":"En proceso de titulación","etnias":"Aguaruna (Awajun)","no_habitantes":0,"fuente":"IBC"}},{"type":"Feature","geometry":{"type":"Point","coordinates":[-73.457039370999951,-3.8732599538725858]},"properties":{"nombre":"San Miguel de Jibaro","status":"En proceso de titulación","etnias":"Candoshi (Kandozi)","no_habitantes":0,"fuente":"AIDESEP"}},{"type":"Feature","geometry":{"type":"Point","coordinates":[-74.569365565999988,-8.7121455337170453]},"properties":{"nombre":"Nueva Alianza","status":"En proceso de titulación","etnias":"Shipibo-Conibo","no_habitantes":92,"fuente":"IBC"}},{"type":"Feature","geometry":{"type":"Point","coordinates":[-74.475922724999975,-11.326454584636114]},"properties":{"nombre":"Nuevo Ashaninka","status":"En proceso de titulación","etnias":"Asháninka","no_habitantes":0,"fuente":"IBC"}},{"type":"Feature","geometry":{"type":"Point","coordinates":[-74.536562088999972,-5.5552009688178856]},"properties":{"nombre":"Nuevo Encanto","status":"En proceso de titulación","etnias":"Cocama-Cocamilla (Kukama-Kukamiria)","no_habitantes":400,"fuente":"IBC"}},{"type":"Feature","geometry":{"type":"Point","coordinates":[-76.460642165999957,-5.8337813388088637]},"properties":{"nombre":"Nuevo Trancayacu","status":"En proceso de titulación","etnias":"Chayahuita (Shawi)","no_habitantes":90,"fuente":"IBC"}},{"type":"Feature","geometry":{"type":"Point","coordinates":[-76.343633327999953,-6.0680924898013426]},"properties":{"nombre":"Nuevo Alianza","status":"En proceso de titulación","etnias":"Chayahuita (Shawi)","no_habitantes":60,"fuente":"IBC"}},{"type":"Feature","geometry":{"type":"Point","coordinates":[-75.820723117999989,-2.9941528639013768]},"properties":{"nombre":"Sauki","status":"En proceso de titulación","etnias":"Achuar","no_habitantes":100,"fuente":"IBC"}},{"type":"Feature","geometry":{"type":"Point","coordinates":[-71.789352469999983,-11.784408836622211]},"properties":{"nombre":"Saryguemineki","status":"En proceso de reconocimiento","etnias":"NO EXISTE","no_habitantes":0,"fuente":"FENAMAD"}},{"type":"Feature","geometry":{"type":"Point","coordinates":[-75.596172720999959,-5.238887143828121]},"properties":{"nombre":"Emanuel Varadero de Tibilo","status":"En proceso de titulación","etnias":"Cocama-Cocamilla (Kukama-Kukamiria)","no_habitantes":36,"fuente":"DISAFILPA"}},{"type":"Feature","geometry":{"type":"Point","coordinates":[-74.480813394999984,-5.5316076048186833]},"properties":{"nombre":"Las Palmas - Río Puinahua","status":"En proceso de titulación","etnias":"Cocama-Cocamilla (Kukama-Kukamiria)","no_habitantes":612,"fuente":"IBC"}},{"type":"Feature","geometry":{"type":"Point","coordinates":[-74.191718149999986,-5.141480496831325]},"properties":{"nombre":"Jorge Chávez - Río Puinahua","status":"En proceso de titulación","etnias":"Cocama-Cocamilla (Kukama-Kukamiria)","no_habitantes":365,"fuente":"IBC"}},{"type":"Feature","geometry":{"type":"Point","coordinates":[-76.490391251999938,-6.4242376937898467]},"properties":{"nombre":"Shukshu Yacu","status":"En proceso de titulación","etnias":"Quechua, Lamas (Kichwa)","no_habitantes":130,"fuente":"IBC"}},{"type":"Feature","geometry":{"type":"Point","coordinates":[-74.369242446999976,-10.886098496649572]},"properties":{"nombre":"Bajo Manichari","status":"En proceso de reconocimiento","etnias":"Ashéninka","no_habitantes":25,"fuente":"IBC"}},{"type":"Feature","geometry":{"type":"Point","coordinates":[-74.008619728999975,-5.2013638718293498]},"properties":{"nombre":"Las Malvinas - Lago Carocurahuayte","status":"En proceso de titulación","etnias":"Cocama-Cocamilla (Kukama-Kukamiria)","no_habitantes":53,"fuente":"IBC"}},{"type":"Feature","geometry":{"type":"Point","coordinates":[-74.217819174999988,-4.6027348868487934]},"properties":{"nombre":"Puerto América","status":"En proceso de titulación","etnias":"Cocama-Cocamilla (Kukama-Kukamiria)","no_habitantes":34,"fuente":"IBC"}},{"type":"Feature","geometry":{"type":"Point","coordinates":[-75.016750937999973,-1.8451298139391479]},"properties":{"nombre":"Urbinas - Río Curaray","status":"En proceso de titulación","etnias":"Quechua, Napo (Kichwa)","no_habitantes":130,"fuente":"IBC"}},{"type":"Feature","geometry":{"type":"Point","coordinates":[-73.330980931999989,-10.725274390654498]},"properties":{"nombre":"Centro Selva Verde","status":"En proceso de titulación","etnias":"Asháninka","no_habitantes":91,"fuente":"IBC"}},{"type":"Feature","geometry":{"type":"Point","coordinates":[-73.847325013999978,-5.2100529108290541]},"properties":{"nombre":"Villa Nueva Reforma","status":"En proceso de titulación","etnias":"Cocama-Cocamilla (Kukama-Kukamiria)","no_habitantes":200,"fuente":"IBC"}},{"type":"Feature","geometry":{"type":"Point","coordinates":[-74.444212491999963,-9.0460054597065653]},"properties":{"nombre":"Antiguo Ahuaypa","status":"En proceso de titulación","etnias":"Shipibo-Conibo","no_habitantes":250,"fuente":"IBC"}},{"type":"Feature","geometry":{"type":"Point","coordinates":[-71.487990631999935,-11.833832087620726]},"properties":{"nombre":"Maizal","status":"En proceso de reconocimiento","etnias":"Machiguenga (Matsigenka)","no_habitantes":0,"fuente":"FENAMAD"}},{"type":"Feature","geometry":{"type":"Point","coordinates":[-75.004048073999968,-10.335925693666473]},"properties":{"nombre":"Unión Juventud","status":"En proceso de titulación","etnias":"Asháninka","no_habitantes":31,"fuente":"IBC"}},{"type":"Feature","geometry":{"type":"Point","coordinates":[-74.057330029999946,-4.5003802018521615]},"properties":{"nombre":"Nuevo Miraflores","status":"En proceso de titulación","etnias":"Cocama-Cocamilla (Kukama-Kukamiria)","no_habitantes":195,"fuente":"IBC"}},{"type":"Feature","geometry":{"type":"Point","coordinates":[-73.248079355999948,-3.6564422848797022]},"properties":{"nombre":"Santa Clotilde","status":"En proceso de titulación","etnias":"Cocama-Cocamilla (Kukama-Kukamiria)","no_habitantes":420,"fuente":"IBC"}},{"type":"Feature","geometry":{"type":"Point","coordinates":[-72.77797861199997,-9.6036556846891852]},"properties":{"nombre":"Puerto Dos","status":"En proceso de reconocimiento","etnias":"Yaminahua","no_habitantes":25,"fuente":"IBC"}},{"type":"Feature","geometry":{"type":"Point","coordinates":[-74.352862613999946,-10.996548862646145]},"properties":{"nombre":"Meyantari","status":"En proceso de titulación","etnias":"Asháninka","no_habitantes":65,"fuente":"IBC"}},{"type":"Feature","geometry":{"type":"Point","coordinates":[-72.541197967999949,-10.405950678664281]},"properties":{"nombre":"Paucarmayo","status":"En proceso de titulación","etnias":"Asháninka","no_habitantes":0,"fuente":"IBC"}},{"type":"Feature","geometry":{"type":"Point","coordinates":[-74.255913245999977,-4.69971223584563]},"properties":{"nombre":"San José de Samiria","status":"En proceso de titulación","etnias":"Cocama-Cocamilla (Kukama-Kukamiria)","no_habitantes":485,"fuente":"IBC"}},{"type":"Feature","geometry":{"type":"Point","coordinates":[-72.580863802999943,-11.437615879632729]},"properties":{"nombre":"Santa Rosa de Serjali","status":"En proceso de titulación","etnias":"Yaminahua","no_habitantes":211,"fuente":"IBC"}},{"type":"Feature","geometry":{"type":"Point","coordinates":[-74.079698761999964,-4.5589699708502343]},"properties":{"nombre":"Dos de Mayo de San Pablo de Tipishca","status":"En proceso de titulación","etnias":"Cocama-Cocamilla (Kukama-Kukamiria)","no_habitantes":255,"fuente":"IBC"}},{"type":"Feature","geometry":{"type":"Point","coordinates":[-74.235643967999977,-5.1281288068317146]},"properties":{"nombre":"Manco Cápac - Río Puinahua","status":"En proceso de titulación","etnias":"Cocama-Cocamilla (Kukama-Kukamiria)","no_habitantes":658,"fuente":"IBC"}},{"type":"Feature","geometry":{"type":"Point","coordinates":[-77.048699613999986,-4.8804126678397868]},"properties":{"nombre":"Shapajal","status":"En proceso de titulación","etnias":"Aguaruna (Awajun)","no_habitantes":110,"fuente":"IBC"}},{"type":"Feature","geometry":{"type":"Point","coordinates":[-74.379185159999963,-9.255263386700026]},"properties":{"nombre":"Nueva Villasol","status":"En proceso de titulación","etnias":"Shipibo-Conibo","no_habitantes":116,"fuente":"IBC"}},{"type":"Feature","geometry":{"type":"Point","coordinates":[-75.698096414999952,-6.3170596897933091]},"properties":{"nombre":"Reforma Llakta","status":"En proceso de titulación","etnias":"Quechua, Lamas (Kichwa)","no_habitantes":250,"fuente":"IBC"}},{"type":"Feature","geometry":{"type":"Point","coordinates":[-78.331242447999955,-5.0519861228341965]},"properties":{"nombre":"Maracana","status":"En proceso de reconocimiento","etnias":"Aguaruna (Awajun)","no_habitantes":117,"fuente":"IBC"}},{"type":"Feature","geometry":{"type":"Point","coordinates":[-75.647630364999941,-5.0380235878346387]},"properties":{"nombre":"San Gabriel","status":"En proceso de titulación","etnias":"Cocama-Cocamilla (Kukama-Kukamiria)","no_habitantes":38,"fuente":"IBC"}},{"type":"Feature","geometry":{"type":"Point","coordinates":[-71.233036669999933,-4.3819614778559872]},"properties":{"nombre":"Yarina del Yavarí","status":"En proceso de titulación","etnias":"Yagua","no_habitantes":39,"fuente":"IBC"}},{"type":"Feature","geometry":{"type":"Point","coordinates":[-70.317639816999986,-11.274493974637661]},"properties":{"nombre":"Nueva Oceánia Boca Shipiwi","status":"En proceso de titulación","etnias":"Piro (Yine)","no_habitantes":110,"fuente":"IBC"}},{"type":"Feature","geometry":{"type":"Point","coordinates":[-77.237208382999938,-4.303147917858599]},"properties":{"nombre":"Tierra Blanca","status":"En proceso de titulación","etnias":"NO EXISTE","no_habitantes":32,"fuente":"IBC"}},{"type":"Feature","geometry":{"type":"Point","coordinates":[-73.495336405999979,-2.5887424209146856]},"properties":{"nombre":"Santa Elisa","status":"En proceso de reconocimiento","etnias":"Quechua, Napo (Kichwa)","no_habitantes":49,"fuente":"IBC"}},{"type":"Feature","geometry":{"type":"Point","coordinates":[-76.396476009999958,-5.7324191878121491]},"properties":{"nombre":"Loma Linda","status":"En proceso de titulación","etnias":"Chayahuita (Shawi)","no_habitantes":0,"fuente":"IBC"}},{"type":"Feature","geometry":{"type":"Point","coordinates":[-73.828609017999952,-4.5579983578502752]},"properties":{"nombre":"Nueva Vida","status":"En proceso de titulación","etnias":"Cocama-Cocamilla (Kukama-Kukamiria)","no_habitantes":25,"fuente":"IBC"}},{"type":"Feature","geometry":{"type":"Point","coordinates":[-74.325035596999953,-11.320926741636246]},"properties":{"nombre":"Tzonquireni","status":"En proceso de titulación","etnias":"Nomatsiguenga","no_habitantes":119,"fuente":"IBC"}},{"type":"Feature","geometry":{"type":"Point","coordinates":[-74.939010680999957,-1.2426911079590042]},"properties":{"nombre":"Cedro Isla","status":"En proceso de titulación","etnias":"Quechua, Napo (Kichwa)","no_habitantes":67,"fuente":"IBC"}},{"type":"Feature","geometry":{"type":"Point","coordinates":[-74.468870933999938,-10.852572078650592]},"properties":{"nombre":"kasankari","status":"En proceso de titulación","etnias":"Ashéninka","no_habitantes":0,"fuente":"IBC"}},{"type":"Feature","geometry":{"type":"Point","coordinates":[-74.765545553999971,-5.8720033078076312]},"properties":{"nombre":"San Raúl","status":"En proceso de titulación","etnias":"Cocama-Cocamilla (Kukama-Kukamiria)","no_habitantes":52,"fuente":"IBC"}},{"type":"Feature","geometry":{"type":"Point","coordinates":[-72.098046039999986,-3.4276610298871959]},"properties":{"nombre":"Fernando Lores de Chamberillo","status":"En proceso de titulación","etnias":"Yagua","no_habitantes":100,"fuente":"IBC"}},{"type":"Feature","geometry":{"type":"Point","coordinates":[-74.061191415999986,-4.5115021698517959]},"properties":{"nombre":"Nuevo Miraflores I Zona","status":"En proceso de titulación","etnias":"Cocama-Cocamilla (Kukama-Kukamiria)","no_habitantes":135,"fuente":"IBC"}},{"type":"Feature","geometry":{"type":"Point","coordinates":[-76.737071723999975,-6.5816237937847939]},"properties":{"nombre":"Ishichihui","status":"En proceso de titulación","etnias":"Quechua, Lamas (Kichwa)","no_habitantes":870,"fuente":"IBC"}}]}